<?xml version="1.0" encoding="UTF-8"?>
<gpx xmlns:gpxdata="http://www.cluetrust.com/XML/GPXDATA/1/0" xmlns:xsi="http://www.w3.org/2001/XMLSchema-instance" xmlns="http://www.topografix.com/GPX/1/1" version="1.1" creator="http://ridewithgps.com/" xsi:schemaLocation="http://www.topografix.com/GPX/1/1 http://www.topografix.com/GPX/1/1/gpx.xsd http://www.cluetrust.com/XML/GPXDATA/1/0 http://www.cluetrust.com/Schemas/gpxdata10.xsd">
  <metadata>
    <name>junk</name>
    <link href="https://ridewithgps.com/routes/55397014">
      <text>junk</text>
    </link>
    <time>2026-05-30T09:19:15Z</time>
  </metadata>
  <trk>
    <name>junk</name>
    <trkseg>
      <trkpt lat="43.51637" lon="16.446929">
        <ele>33.9</ele>
      </trkpt>
      <trkpt lat="43.51657" lon="16.44659">
        <ele>33.0</ele>
      </trkpt>
      <trkpt lat="43.51669" lon="16.44637">
        <ele>32.2</ele>
      </trkpt>
      <trkpt lat="43.51688" lon="16.44602">
        <ele>31.1</ele>
      </trkpt>
      <trkpt lat="43.51695" lon="16.445889">
        <ele>30.7</ele>
      </trkpt>
      <trkpt lat="43.517" lon="16.44577">
        <ele>30.6</ele>
      </trkpt>
      <trkpt lat="43.51689" lon="16.44564">
        <ele>30.9</ele>
      </trkpt>
      <trkpt lat="43.51655" lon="16.445229">
        <ele>31.9</ele>
      </trkpt>
      <trkpt lat="43.51621" lon="16.44481">
        <ele>31.4</ele>
      </trkpt>
      <trkpt lat="43.5157" lon="16.44421">
        <ele>30.0</ele>
      </trkpt>
      <trkpt lat="43.51536" lon="16.44387">
        <ele>29.0</ele>
      </trkpt>
      <trkpt lat="43.51515" lon="16.4437">
        <ele>28.3</ele>
      </trkpt>
      <trkpt lat="43.51503" lon="16.443639">
        <ele>27.8</ele>
      </trkpt>
      <trkpt lat="43.51481" lon="16.44353">
        <ele>27.4</ele>
      </trkpt>
      <trkpt lat="43.51469" lon="16.4435">
        <ele>27.3</ele>
      </trkpt>
      <trkpt lat="43.5145" lon="16.443439">
        <ele>27.1</ele>
      </trkpt>
      <trkpt lat="43.51431" lon="16.44337">
        <ele>27.0</ele>
      </trkpt>
      <trkpt lat="43.51419" lon="16.44331">
        <ele>26.9</ele>
      </trkpt>
      <trkpt lat="43.51372" lon="16.44305">
        <ele>24.9</ele>
      </trkpt>
      <trkpt lat="43.51304" lon="16.44264">
        <ele>22.5</ele>
      </trkpt>
      <trkpt lat="43.51261" lon="16.44239">
        <ele>21.7</ele>
      </trkpt>
      <trkpt lat="43.51237" lon="16.442219">
        <ele>21.5</ele>
      </trkpt>
      <trkpt lat="43.51234" lon="16.44217">
        <ele>21.4</ele>
      </trkpt>
      <trkpt lat="43.51228" lon="16.44212">
        <ele>21.4</ele>
      </trkpt>
      <trkpt lat="43.51213" lon="16.442039">
        <ele>21.3</ele>
      </trkpt>
      <trkpt lat="43.51207" lon="16.44201">
        <ele>21.2</ele>
      </trkpt>
      <trkpt lat="43.51178" lon="16.44184">
        <ele>20.8</ele>
      </trkpt>
      <trkpt lat="43.51135" lon="16.441579">
        <ele>18.3</ele>
      </trkpt>
      <trkpt lat="43.51094" lon="16.44133">
        <ele>16.4</ele>
      </trkpt>
      <trkpt lat="43.51067" lon="16.44118">
        <ele>15.9</ele>
      </trkpt>
      <trkpt lat="43.51058" lon="16.44114">
        <ele>15.8</ele>
      </trkpt>
      <trkpt lat="43.51052" lon="16.44113">
        <ele>15.8</ele>
      </trkpt>
      <trkpt lat="43.51034" lon="16.441199">
        <ele>15.7</ele>
      </trkpt>
      <trkpt lat="43.51023" lon="16.44126">
        <ele>15.6</ele>
      </trkpt>
      <trkpt lat="43.51015" lon="16.44132">
        <ele>15.7</ele>
      </trkpt>
      <trkpt lat="43.51005" lon="16.4414">
        <ele>15.7</ele>
      </trkpt>
      <trkpt lat="43.50972" lon="16.441749">
        <ele>15.9</ele>
      </trkpt>
      <trkpt lat="43.50936" lon="16.44218">
        <ele>15.9</ele>
      </trkpt>
      <trkpt lat="43.50932" lon="16.44224">
        <ele>15.9</ele>
      </trkpt>
      <trkpt lat="43.50926" lon="16.44239">
        <ele>15.9</ele>
      </trkpt>
      <trkpt lat="43.50903" lon="16.4431">
        <ele>17.0</ele>
      </trkpt>
      <trkpt lat="43.50901" lon="16.44314">
        <ele>17.0</ele>
      </trkpt>
      <trkpt lat="43.50896" lon="16.44321">
        <ele>17.1</ele>
      </trkpt>
      <trkpt lat="43.50893" lon="16.44322">
        <ele>17.0</ele>
      </trkpt>
      <trkpt lat="43.50888" lon="16.44323">
        <ele>16.9</ele>
      </trkpt>
      <trkpt lat="43.50883" lon="16.4432">
        <ele>16.7</ele>
      </trkpt>
      <trkpt lat="43.50857" lon="16.443">
        <ele>14.9</ele>
      </trkpt>
      <trkpt lat="43.50838" lon="16.44285">
        <ele>13.3</ele>
      </trkpt>
      <trkpt lat="43.50799" lon="16.44256">
        <ele>10.2</ele>
      </trkpt>
      <trkpt lat="43.50785" lon="16.44248">
        <ele>9.2</ele>
      </trkpt>
      <trkpt lat="43.50778" lon="16.44244">
        <ele>8.9</ele>
      </trkpt>
      <trkpt lat="43.50774" lon="16.44244">
        <ele>8.8</ele>
      </trkpt>
      <trkpt lat="43.50764" lon="16.4424">
        <ele>8.2</ele>
      </trkpt>
      <trkpt lat="43.5076" lon="16.44239">
        <ele>8.0</ele>
      </trkpt>
      <trkpt lat="43.50741" lon="16.44239">
        <ele>7.3</ele>
      </trkpt>
      <trkpt lat="43.50712" lon="16.4424">
        <ele>6.6</ele>
      </trkpt>
      <trkpt lat="43.50706" lon="16.44239">
        <ele>6.3</ele>
      </trkpt>
      <trkpt lat="43.50696" lon="16.44236">
        <ele>5.9</ele>
      </trkpt>
      <trkpt lat="43.50697" lon="16.44217">
        <ele>4.8</ele>
      </trkpt>
      <trkpt lat="43.50697" lon="16.442029">
        <ele>4.0</ele>
      </trkpt>
      <trkpt lat="43.50697" lon="16.441579">
        <ele>1.9</ele>
      </trkpt>
      <trkpt lat="43.50701" lon="16.4414">
        <ele>2.2</ele>
      </trkpt>
      <trkpt lat="43.50702" lon="16.44113">
        <ele>2.5</ele>
      </trkpt>
      <trkpt lat="43.50702" lon="16.44107">
        <ele>2.5</ele>
      </trkpt>
      <trkpt lat="43.50707" lon="16.44086">
        <ele>2.9</ele>
      </trkpt>
      <trkpt lat="43.50708" lon="16.44076">
        <ele>3.0</ele>
      </trkpt>
      <trkpt lat="43.50708" lon="16.440719">
        <ele>3.0</ele>
      </trkpt>
      <trkpt lat="43.50708" lon="16.440719">
        <ele>3.0</ele>
      </trkpt>
      <trkpt lat="43.50708" lon="16.440629">
        <ele>3.0</ele>
      </trkpt>
      <trkpt lat="43.5071" lon="16.44052">
        <ele>3.1</ele>
      </trkpt>
      <trkpt lat="43.50729" lon="16.439889">
        <ele>3.6</ele>
      </trkpt>
      <trkpt lat="43.50733" lon="16.43977">
        <ele>3.4</ele>
      </trkpt>
      <trkpt lat="43.50733" lon="16.439689">
        <ele>3.1</ele>
      </trkpt>
      <trkpt lat="43.50741" lon="16.439699">
        <ele>3.5</ele>
      </trkpt>
      <trkpt lat="43.50738" lon="16.43962">
        <ele>3.1</ele>
      </trkpt>
      <trkpt lat="43.50741" lon="16.439499">
        <ele>2.8</ele>
      </trkpt>
      <trkpt lat="43.50772" lon="16.43849">
        <ele>2.4</ele>
      </trkpt>
      <trkpt lat="43.50788" lon="16.437999">
        <ele>2.6</ele>
      </trkpt>
      <trkpt lat="43.50774" lon="16.43793">
        <ele>1.8</ele>
      </trkpt>
      <trkpt lat="43.50802" lon="16.4369">
        <ele>1.8</ele>
      </trkpt>
      <trkpt lat="43.50804" lon="16.436599">
        <ele>1.4</ele>
      </trkpt>
      <trkpt lat="43.50797" lon="16.4362">
        <ele>1.8</ele>
      </trkpt>
      <trkpt lat="43.50788" lon="16.435659">
        <ele>2.1</ele>
      </trkpt>
      <trkpt lat="43.50771" lon="16.43448">
        <ele>3.5</ele>
      </trkpt>
      <trkpt lat="43.50769" lon="16.434429">
        <ele>3.5</ele>
      </trkpt>
      <trkpt lat="43.5076" lon="16.434439">
        <ele>2.8</ele>
      </trkpt>
      <trkpt lat="43.50753" lon="16.434259">
        <ele>2.9</ele>
      </trkpt>
      <trkpt lat="43.50744" lon="16.43408">
        <ele>3.1</ele>
      </trkpt>
      <trkpt lat="43.50734" lon="16.4341">
        <ele>2.6</ele>
      </trkpt>
      <trkpt lat="43.50715" lon="16.43414">
        <ele>1.8</ele>
      </trkpt>
      <trkpt lat="43.50707" lon="16.43347">
        <ele>2.7</ele>
      </trkpt>
      <trkpt lat="43.50656" lon="16.43325">
        <ele>0.0</ele>
      </trkpt>
      <trkpt lat="43.50646" lon="16.43316">
        <ele>0.0</ele>
      </trkpt>
      <trkpt lat="43.50633" lon="16.43298">
        <ele>0.0</ele>
      </trkpt>
      <trkpt lat="43.50628" lon="16.432939">
        <ele>0.0</ele>
      </trkpt>
      <trkpt lat="43.50605" lon="16.43248">
        <ele>0.1</ele>
      </trkpt>
      <trkpt lat="43.50583" lon="16.432009">
        <ele>0.6</ele>
      </trkpt>
      <trkpt lat="43.50569" lon="16.43173">
        <ele>0.8</ele>
      </trkpt>
      <trkpt lat="43.50555" lon="16.43158">
        <ele>0.9</ele>
      </trkpt>
      <trkpt lat="43.50543" lon="16.4314">
        <ele>1.0</ele>
      </trkpt>
      <trkpt lat="43.50539" lon="16.43127">
        <ele>1.1</ele>
      </trkpt>
      <trkpt lat="43.50538" lon="16.431249">
        <ele>1.1</ele>
      </trkpt>
      <trkpt lat="43.50478" lon="16.43038">
        <ele>4.8</ele>
      </trkpt>
      <trkpt lat="43.5046" lon="16.43018">
        <ele>4.9</ele>
      </trkpt>
      <trkpt lat="43.5044" lon="16.42999">
        <ele>3.4</ele>
      </trkpt>
      <trkpt lat="43.50416" lon="16.42973">
        <ele>0.6</ele>
      </trkpt>
      <trkpt lat="43.50358" lon="16.42916">
        <ele>0.7</ele>
      </trkpt>
      <trkpt lat="43.50357" lon="16.42905">
        <ele>1.7</ele>
      </trkpt>
      <trkpt lat="43.50355" lon="16.428999">
        <ele>2.2</ele>
      </trkpt>
      <trkpt lat="43.50351" lon="16.42895">
        <ele>2.6</ele>
      </trkpt>
      <trkpt lat="43.5034" lon="16.42884">
        <ele>3.3</ele>
      </trkpt>
      <trkpt lat="43.50342" lon="16.42882">
        <ele>3.6</ele>
      </trkpt>
      <trkpt lat="43.50343" lon="16.42879">
        <ele>3.9</ele>
      </trkpt>
      <trkpt lat="43.50317" lon="16.42851">
        <ele>4.6</ele>
      </trkpt>
      <trkpt lat="43.50317" lon="16.4285">
        <ele>4.7</ele>
      </trkpt>
      <trkpt lat="43.50317" lon="16.4285">
        <ele>4.7</ele>
      </trkpt>
      <trkpt lat="43.50314" lon="16.42848">
        <ele>4.6</ele>
      </trkpt>
      <trkpt lat="43.5031" lon="16.42838">
        <ele>4.9</ele>
      </trkpt>
      <trkpt lat="43.50304" lon="16.42829">
        <ele>4.6</ele>
      </trkpt>
      <trkpt lat="43.50306" lon="16.42827">
        <ele>4.8</ele>
      </trkpt>
      <trkpt lat="43.50306" lon="16.42827">
        <ele>4.8</ele>
      </trkpt>
      <trkpt lat="43.50308" lon="16.428249">
        <ele>5.1</ele>
      </trkpt>
      <trkpt lat="43.50303" lon="16.428149">
        <ele>4.7</ele>
      </trkpt>
      <trkpt lat="43.50301" lon="16.42801">
        <ele>4.8</ele>
      </trkpt>
      <trkpt lat="43.503" lon="16.42781">
        <ele>5.1</ele>
      </trkpt>
      <trkpt lat="43.50301" lon="16.42775">
        <ele>5.4</ele>
      </trkpt>
      <trkpt lat="43.50302" lon="16.42751">
        <ele>6.0</ele>
      </trkpt>
      <trkpt lat="43.50306" lon="16.42733">
        <ele>6.2</ele>
      </trkpt>
      <trkpt lat="43.50308" lon="16.42719">
        <ele>6.3</ele>
      </trkpt>
      <trkpt lat="43.50311" lon="16.42708">
        <ele>6.4</ele>
      </trkpt>
      <trkpt lat="43.50313" lon="16.427029">
        <ele>6.5</ele>
      </trkpt>
      <trkpt lat="43.50315" lon="16.42701">
        <ele>6.6</ele>
      </trkpt>
      <trkpt lat="43.50318" lon="16.42699">
        <ele>6.8</ele>
      </trkpt>
      <trkpt lat="43.5032" lon="16.42692">
        <ele>6.8</ele>
      </trkpt>
      <trkpt lat="43.5032" lon="16.426839">
        <ele>6.6</ele>
      </trkpt>
      <trkpt lat="43.50319" lon="16.42681">
        <ele>6.5</ele>
      </trkpt>
      <trkpt lat="43.5032" lon="16.42672">
        <ele>6.4</ele>
      </trkpt>
      <trkpt lat="43.50322" lon="16.42663">
        <ele>6.5</ele>
      </trkpt>
      <trkpt lat="43.50325" lon="16.42654">
        <ele>6.7</ele>
      </trkpt>
      <trkpt lat="43.5033" lon="16.42629">
        <ele>7.2</ele>
      </trkpt>
      <trkpt lat="43.50336" lon="16.42606">
        <ele>7.9</ele>
      </trkpt>
      <trkpt lat="43.50344" lon="16.425619">
        <ele>9.0</ele>
      </trkpt>
      <trkpt lat="43.50351" lon="16.42518">
        <ele>9.9</ele>
      </trkpt>
      <trkpt lat="43.50359" lon="16.42464">
        <ele>9.5</ele>
      </trkpt>
      <trkpt lat="43.50361" lon="16.42452">
        <ele>9.3</ele>
      </trkpt>
      <trkpt lat="43.50365" lon="16.42428">
        <ele>9.0</ele>
      </trkpt>
      <trkpt lat="43.50368" lon="16.42405">
        <ele>9.0</ele>
      </trkpt>
      <trkpt lat="43.50369" lon="16.424">
        <ele>9.1</ele>
      </trkpt>
      <trkpt lat="43.50375" lon="16.42362">
        <ele>9.8</ele>
      </trkpt>
      <trkpt lat="43.50377" lon="16.42352">
        <ele>10.0</ele>
      </trkpt>
      <trkpt lat="43.50379" lon="16.42338">
        <ele>10.3</ele>
      </trkpt>
      <trkpt lat="43.50395" lon="16.422429">
        <ele>10.8</ele>
      </trkpt>
      <trkpt lat="43.50411" lon="16.421479">
        <ele>11.2</ele>
      </trkpt>
      <trkpt lat="43.50414" lon="16.421199">
        <ele>12.4</ele>
      </trkpt>
      <trkpt lat="43.50422" lon="16.42061">
        <ele>14.4</ele>
      </trkpt>
      <trkpt lat="43.50424" lon="16.42043">
        <ele>14.4</ele>
      </trkpt>
      <trkpt lat="43.50424" lon="16.42035">
        <ele>14.3</ele>
      </trkpt>
      <trkpt lat="43.50427" lon="16.4201">
        <ele>14.4</ele>
      </trkpt>
      <trkpt lat="43.50428" lon="16.41968">
        <ele>14.7</ele>
      </trkpt>
      <trkpt lat="43.50428" lon="16.41945">
        <ele>14.9</ele>
      </trkpt>
      <trkpt lat="43.50424" lon="16.41865">
        <ele>12.7</ele>
      </trkpt>
      <trkpt lat="43.5042" lon="16.41785">
        <ele>11.3</ele>
      </trkpt>
      <trkpt lat="43.50418" lon="16.41719">
        <ele>12.4</ele>
      </trkpt>
      <trkpt lat="43.50416" lon="16.41653">
        <ele>14.1</ele>
      </trkpt>
      <trkpt lat="43.50414" lon="16.41597">
        <ele>14.4</ele>
      </trkpt>
      <trkpt lat="43.50413" lon="16.41479">
        <ele>16.1</ele>
      </trkpt>
      <trkpt lat="43.50413" lon="16.41468">
        <ele>16.0</ele>
      </trkpt>
      <trkpt lat="43.50413" lon="16.41391">
        <ele>15.8</ele>
      </trkpt>
      <trkpt lat="43.50413" lon="16.41366">
        <ele>16.1</ele>
      </trkpt>
      <trkpt lat="43.50413" lon="16.4132">
        <ele>16.1</ele>
      </trkpt>
      <trkpt lat="43.50418" lon="16.41281">
        <ele>15.3</ele>
      </trkpt>
      <trkpt lat="43.50425" lon="16.412289">
        <ele>14.7</ele>
      </trkpt>
      <trkpt lat="43.50436" lon="16.411819">
        <ele>15.1</ele>
      </trkpt>
      <trkpt lat="43.50471" lon="16.41087">
        <ele>14.1</ele>
      </trkpt>
      <trkpt lat="43.50473" lon="16.41082">
        <ele>14.0</ele>
      </trkpt>
      <trkpt lat="43.50484" lon="16.410499">
        <ele>13.1</ele>
      </trkpt>
      <trkpt lat="43.50494" lon="16.410129">
        <ele>12.2</ele>
      </trkpt>
      <trkpt lat="43.50501" lon="16.40951">
        <ele>11.0</ele>
      </trkpt>
      <trkpt lat="43.50508" lon="16.4089">
        <ele>12.0</ele>
      </trkpt>
      <trkpt lat="43.50519" lon="16.40786">
        <ele>15.9</ele>
      </trkpt>
      <trkpt lat="43.50522" lon="16.40755">
        <ele>16.9</ele>
      </trkpt>
      <trkpt lat="43.5052" lon="16.40705">
        <ele>17.1</ele>
      </trkpt>
      <trkpt lat="43.50518" lon="16.40618">
        <ele>18.2</ele>
      </trkpt>
      <trkpt lat="43.50515" lon="16.405449">
        <ele>20.5</ele>
      </trkpt>
      <trkpt lat="43.50512" lon="16.40467">
        <ele>22.3</ele>
      </trkpt>
      <trkpt lat="43.50513" lon="16.4042">
        <ele>22.9</ele>
      </trkpt>
      <trkpt lat="43.50516" lon="16.4038">
        <ele>23.8</ele>
      </trkpt>
      <trkpt lat="43.50522" lon="16.40349">
        <ele>25.6</ele>
      </trkpt>
      <trkpt lat="43.50529" lon="16.40327">
        <ele>27.3</ele>
      </trkpt>
      <trkpt lat="43.50541" lon="16.402909">
        <ele>28.3</ele>
      </trkpt>
      <trkpt lat="43.50561" lon="16.40228">
        <ele>26.9</ele>
      </trkpt>
      <trkpt lat="43.50576" lon="16.40186">
        <ele>23.6</ele>
      </trkpt>
      <trkpt lat="43.50591" lon="16.40155">
        <ele>19.9</ele>
      </trkpt>
      <trkpt lat="43.50598" lon="16.40145">
        <ele>18.1</ele>
      </trkpt>
      <trkpt lat="43.50602" lon="16.40138">
        <ele>16.8</ele>
      </trkpt>
      <trkpt lat="43.50617" lon="16.401309">
        <ele>16.0</ele>
      </trkpt>
      <trkpt lat="43.50628" lon="16.40128">
        <ele>15.8</ele>
      </trkpt>
      <trkpt lat="43.50641" lon="16.401309">
        <ele>17.2</ele>
      </trkpt>
      <trkpt lat="43.50652" lon="16.40144">
        <ele>20.8</ele>
      </trkpt>
      <trkpt lat="43.50686" lon="16.401959">
        <ele>32.5</ele>
      </trkpt>
      <trkpt lat="43.50702" lon="16.40214">
        <ele>35.8</ele>
      </trkpt>
      <trkpt lat="43.50719" lon="16.4022">
        <ele>36.6</ele>
      </trkpt>
      <trkpt lat="43.50735" lon="16.4022">
        <ele>36.2</ele>
      </trkpt>
      <trkpt lat="43.50749" lon="16.40214">
        <ele>34.7</ele>
      </trkpt>
      <trkpt lat="43.50756" lon="16.402069">
        <ele>35.2</ele>
      </trkpt>
      <trkpt lat="43.50779" lon="16.40183">
        <ele>37.9</ele>
      </trkpt>
      <trkpt lat="43.50795" lon="16.40158">
        <ele>39.3</ele>
      </trkpt>
      <trkpt lat="43.5081" lon="16.40106">
        <ele>39.5</ele>
      </trkpt>
      <trkpt lat="43.50818" lon="16.40067">
        <ele>38.1</ele>
      </trkpt>
      <trkpt lat="43.50835" lon="16.39957">
        <ele>34.5</ele>
      </trkpt>
      <trkpt lat="43.50838" lon="16.39921">
        <ele>35.1</ele>
      </trkpt>
      <trkpt lat="43.50841" lon="16.39881">
        <ele>35.0</ele>
      </trkpt>
      <trkpt lat="43.50844" lon="16.39829">
        <ele>34.4</ele>
      </trkpt>
      <trkpt lat="43.50848" lon="16.39781">
        <ele>35.2</ele>
      </trkpt>
      <trkpt lat="43.50849" lon="16.39768">
        <ele>35.3</ele>
      </trkpt>
      <trkpt lat="43.50851" lon="16.39695">
        <ele>36.1</ele>
      </trkpt>
      <trkpt lat="43.50852" lon="16.39665">
        <ele>36.8</ele>
      </trkpt>
      <trkpt lat="43.50851" lon="16.3961">
        <ele>37.9</ele>
      </trkpt>
      <trkpt lat="43.50851" lon="16.395879">
        <ele>38.6</ele>
      </trkpt>
      <trkpt lat="43.50849" lon="16.39564">
        <ele>38.1</ele>
      </trkpt>
      <trkpt lat="43.50842" lon="16.39504">
        <ele>36.5</ele>
      </trkpt>
      <trkpt lat="43.50832" lon="16.394459">
        <ele>36.4</ele>
      </trkpt>
      <trkpt lat="43.50829" lon="16.39434">
        <ele>36.2</ele>
      </trkpt>
      <trkpt lat="43.50829" lon="16.39434">
        <ele>36.2</ele>
      </trkpt>
      <trkpt lat="43.50826" lon="16.39424">
        <ele>35.9</ele>
      </trkpt>
      <trkpt lat="43.50825" lon="16.3941">
        <ele>36.1</ele>
      </trkpt>
      <trkpt lat="43.50825" lon="16.39368">
        <ele>35.8</ele>
      </trkpt>
      <trkpt lat="43.5082" lon="16.39327">
        <ele>33.5</ele>
      </trkpt>
      <trkpt lat="43.50812" lon="16.39242">
        <ele>30.1</ele>
      </trkpt>
      <trkpt lat="43.50809" lon="16.39201">
        <ele>26.5</ele>
      </trkpt>
      <trkpt lat="43.50808" lon="16.39152">
        <ele>24.4</ele>
      </trkpt>
      <trkpt lat="43.5081" lon="16.39054">
        <ele>23.0</ele>
      </trkpt>
      <trkpt lat="43.50814" lon="16.38965">
        <ele>15.4</ele>
      </trkpt>
      <trkpt lat="43.50814" lon="16.38954">
        <ele>14.0</ele>
      </trkpt>
      <trkpt lat="43.50816" lon="16.38943">
        <ele>12.8</ele>
      </trkpt>
      <trkpt lat="43.50819" lon="16.389389">
        <ele>12.5</ele>
      </trkpt>
      <trkpt lat="43.50822" lon="16.38936">
        <ele>12.4</ele>
      </trkpt>
      <trkpt lat="43.50827" lon="16.38934">
        <ele>12.4</ele>
      </trkpt>
      <trkpt lat="43.50847" lon="16.389309">
        <ele>11.4</ele>
      </trkpt>
      <trkpt lat="43.50849" lon="16.38932">
        <ele>11.5</ele>
      </trkpt>
      <trkpt lat="43.50868" lon="16.38936">
        <ele>10.9</ele>
      </trkpt>
      <trkpt lat="43.50886" lon="16.38944">
        <ele>11.4</ele>
      </trkpt>
      <trkpt lat="43.509" lon="16.389589">
        <ele>14.0</ele>
      </trkpt>
      <trkpt lat="43.5091" lon="16.389759">
        <ele>17.5</ele>
      </trkpt>
      <trkpt lat="43.50923" lon="16.3901">
        <ele>22.5</ele>
      </trkpt>
      <trkpt lat="43.50932" lon="16.3904">
        <ele>23.7</ele>
      </trkpt>
      <trkpt lat="43.50947" lon="16.39132">
        <ele>28.8</ele>
      </trkpt>
      <trkpt lat="43.50953" lon="16.3916">
        <ele>29.9</ele>
      </trkpt>
      <trkpt lat="43.50958" lon="16.39181">
        <ele>31.0</ele>
      </trkpt>
      <trkpt lat="43.50975" lon="16.39216">
        <ele>30.8</ele>
      </trkpt>
      <trkpt lat="43.51003" lon="16.392679">
        <ele>30.1</ele>
      </trkpt>
      <trkpt lat="43.51035" lon="16.3935">
        <ele>28.7</ele>
      </trkpt>
      <trkpt lat="43.5106" lon="16.39406">
        <ele>27.9</ele>
      </trkpt>
      <trkpt lat="43.51097" lon="16.394749">
        <ele>24.9</ele>
      </trkpt>
      <trkpt lat="43.51135" lon="16.39544">
        <ele>23.7</ele>
      </trkpt>
      <trkpt lat="43.51159" lon="16.396139">
        <ele>24.6</ele>
      </trkpt>
      <trkpt lat="43.51187" lon="16.39695">
        <ele>22.7</ele>
      </trkpt>
      <trkpt lat="43.51215" lon="16.39776">
        <ele>22.0</ele>
      </trkpt>
      <trkpt lat="43.51244" lon="16.39857">
        <ele>21.2</ele>
      </trkpt>
      <trkpt lat="43.51272" lon="16.39927">
        <ele>20.4</ele>
      </trkpt>
      <trkpt lat="43.51302" lon="16.399989">
        <ele>19.6</ele>
      </trkpt>
      <trkpt lat="43.51334" lon="16.40073">
        <ele>16.5</ele>
      </trkpt>
      <trkpt lat="43.51344" lon="16.40118">
        <ele>15.8</ele>
      </trkpt>
      <trkpt lat="43.51349" lon="16.40158">
        <ele>16.1</ele>
      </trkpt>
      <trkpt lat="43.51348" lon="16.40208">
        <ele>17.5</ele>
      </trkpt>
      <trkpt lat="43.51354" lon="16.40249">
        <ele>17.5</ele>
      </trkpt>
      <trkpt lat="43.51359" lon="16.40264">
        <ele>17.1</ele>
      </trkpt>
      <trkpt lat="43.51376" lon="16.402729">
        <ele>14.8</ele>
      </trkpt>
      <trkpt lat="43.51384" lon="16.40279">
        <ele>13.9</ele>
      </trkpt>
      <trkpt lat="43.51388" lon="16.40285">
        <ele>13.6</ele>
      </trkpt>
      <trkpt lat="43.5139" lon="16.40286">
        <ele>13.4</ele>
      </trkpt>
      <trkpt lat="43.51392" lon="16.40289">
        <ele>13.3</ele>
      </trkpt>
      <trkpt lat="43.51393" lon="16.40293">
        <ele>13.3</ele>
      </trkpt>
      <trkpt lat="43.51393" lon="16.40297">
        <ele>13.6</ele>
      </trkpt>
      <trkpt lat="43.51404" lon="16.40299">
        <ele>12.2</ele>
      </trkpt>
      <trkpt lat="43.51404" lon="16.40299">
        <ele>12.2</ele>
      </trkpt>
      <trkpt lat="43.51406" lon="16.40299">
        <ele>11.9</ele>
      </trkpt>
      <trkpt lat="43.5142" lon="16.40298">
        <ele>10.4</ele>
      </trkpt>
      <trkpt lat="43.51429" lon="16.40299">
        <ele>10.3</ele>
      </trkpt>
      <trkpt lat="43.51441" lon="16.40304">
        <ele>10.3</ele>
      </trkpt>
      <trkpt lat="43.51466" lon="16.40314">
        <ele>10.2</ele>
      </trkpt>
      <trkpt lat="43.51472" lon="16.403199">
        <ele>10.4</ele>
      </trkpt>
      <trkpt lat="43.51476" lon="16.40325">
        <ele>10.5</ele>
      </trkpt>
      <trkpt lat="43.51481" lon="16.403369">
        <ele>10.7</ele>
      </trkpt>
      <trkpt lat="43.51483" lon="16.40354">
        <ele>11.0</ele>
      </trkpt>
      <trkpt lat="43.51485" lon="16.40409">
        <ele>11.8</ele>
      </trkpt>
      <trkpt lat="43.51484" lon="16.40435">
        <ele>11.3</ele>
      </trkpt>
      <trkpt lat="43.51483" lon="16.40449">
        <ele>10.9</ele>
      </trkpt>
      <trkpt lat="43.51466" lon="16.405529">
        <ele>8.6</ele>
      </trkpt>
      <trkpt lat="43.51459" lon="16.40594">
        <ele>7.9</ele>
      </trkpt>
      <trkpt lat="43.51448" lon="16.40626">
        <ele>8.4</ele>
      </trkpt>
      <trkpt lat="43.51438" lon="16.40636">
        <ele>9.4</ele>
      </trkpt>
      <trkpt lat="43.51428" lon="16.40644">
        <ele>10.3</ele>
      </trkpt>
      <trkpt lat="43.51417" lon="16.40653">
        <ele>11.1</ele>
      </trkpt>
      <trkpt lat="43.51417" lon="16.40658">
        <ele>10.7</ele>
      </trkpt>
      <trkpt lat="43.51415" lon="16.4068">
        <ele>10.8</ele>
      </trkpt>
      <trkpt lat="43.51414" lon="16.4069">
        <ele>11.3</ele>
      </trkpt>
      <trkpt lat="43.51418" lon="16.40701">
        <ele>11.1</ele>
      </trkpt>
      <trkpt lat="43.51455" lon="16.40726">
        <ele>6.6</ele>
      </trkpt>
      <trkpt lat="43.51457" lon="16.407319">
        <ele>6.4</ele>
      </trkpt>
      <trkpt lat="43.51459" lon="16.40733">
        <ele>6.1</ele>
      </trkpt>
      <trkpt lat="43.51468" lon="16.407509">
        <ele>5.0</ele>
      </trkpt>
      <trkpt lat="43.5147" lon="16.40763">
        <ele>5.0</ele>
      </trkpt>
      <trkpt lat="43.5147" lon="16.40782">
        <ele>5.5</ele>
      </trkpt>
      <trkpt lat="43.51468" lon="16.40808">
        <ele>6.6</ele>
      </trkpt>
      <trkpt lat="43.51467" lon="16.40837">
        <ele>7.5</ele>
      </trkpt>
      <trkpt lat="43.51465" lon="16.40852">
        <ele>7.7</ele>
      </trkpt>
      <trkpt lat="43.51442" lon="16.40926">
        <ele>11.0</ele>
      </trkpt>
      <trkpt lat="43.5144" lon="16.40943">
        <ele>11.1</ele>
      </trkpt>
      <trkpt lat="43.51438" lon="16.40961">
        <ele>11.1</ele>
      </trkpt>
      <trkpt lat="43.51433" lon="16.4101">
        <ele>11.4</ele>
      </trkpt>
      <trkpt lat="43.51435" lon="16.41128">
        <ele>13.3</ele>
      </trkpt>
      <trkpt lat="43.51438" lon="16.41185">
        <ele>13.2</ele>
      </trkpt>
      <trkpt lat="43.51438" lon="16.412299">
        <ele>12.8</ele>
      </trkpt>
      <trkpt lat="43.51424" lon="16.41308">
        <ele>13.6</ele>
      </trkpt>
      <trkpt lat="43.5141" lon="16.41386">
        <ele>14.9</ele>
      </trkpt>
      <trkpt lat="43.514" lon="16.41441">
        <ele>15.7</ele>
      </trkpt>
      <trkpt lat="43.514" lon="16.4145">
        <ele>15.4</ele>
      </trkpt>
      <trkpt lat="43.51397" lon="16.41571">
        <ele>15.6</ele>
      </trkpt>
      <trkpt lat="43.51406" lon="16.41644">
        <ele>15.9</ele>
      </trkpt>
      <trkpt lat="43.51406" lon="16.41656">
        <ele>16.2</ele>
      </trkpt>
      <trkpt lat="43.51405" lon="16.41713">
        <ele>17.8</ele>
      </trkpt>
      <trkpt lat="43.51394" lon="16.41824">
        <ele>21.4</ele>
      </trkpt>
      <trkpt lat="43.51394" lon="16.418299">
        <ele>21.4</ele>
      </trkpt>
      <trkpt lat="43.51382" lon="16.41919">
        <ele>25.5</ele>
      </trkpt>
      <trkpt lat="43.51373" lon="16.419799">
        <ele>25.7</ele>
      </trkpt>
      <trkpt lat="43.51364" lon="16.42041">
        <ele>26.1</ele>
      </trkpt>
      <trkpt lat="43.51358" lon="16.42089">
        <ele>25.5</ele>
      </trkpt>
      <trkpt lat="43.51357" lon="16.42091">
        <ele>25.6</ele>
      </trkpt>
      <trkpt lat="43.51357" lon="16.42091">
        <ele>25.6</ele>
      </trkpt>
      <trkpt lat="43.51349" lon="16.421479">
        <ele>23.3</ele>
      </trkpt>
      <trkpt lat="43.51333" lon="16.4225">
        <ele>22.1</ele>
      </trkpt>
      <trkpt lat="43.51331" lon="16.42272">
        <ele>23.0</ele>
      </trkpt>
      <trkpt lat="43.51301" lon="16.42368">
        <ele>30.2</ele>
      </trkpt>
      <trkpt lat="43.51292" lon="16.42396">
        <ele>31.3</ele>
      </trkpt>
      <trkpt lat="43.51288" lon="16.42408">
        <ele>31.7</ele>
      </trkpt>
      <trkpt lat="43.51282" lon="16.42436">
        <ele>31.6</ele>
      </trkpt>
      <trkpt lat="43.51274" lon="16.42485">
        <ele>30.3</ele>
      </trkpt>
      <trkpt lat="43.51271" lon="16.425139">
        <ele>29.8</ele>
      </trkpt>
      <trkpt lat="43.51265" lon="16.42564">
        <ele>30.5</ele>
      </trkpt>
      <trkpt lat="43.51258" lon="16.426079">
        <ele>30.6</ele>
      </trkpt>
      <trkpt lat="43.51249" lon="16.42643">
        <ele>30.4</ele>
      </trkpt>
      <trkpt lat="43.51232" lon="16.426929">
        <ele>33.1</ele>
      </trkpt>
      <trkpt lat="43.51217" lon="16.42743">
        <ele>34.8</ele>
      </trkpt>
      <trkpt lat="43.51202" lon="16.427969">
        <ele>34.7</ele>
      </trkpt>
      <trkpt lat="43.51199" lon="16.42808">
        <ele>34.4</ele>
      </trkpt>
      <trkpt lat="43.51193" lon="16.42845">
        <ele>33.4</ele>
      </trkpt>
      <trkpt lat="43.51186" lon="16.42878">
        <ele>33.7</ele>
      </trkpt>
      <trkpt lat="43.51185" lon="16.42883">
        <ele>33.8</ele>
      </trkpt>
      <trkpt lat="43.51159" lon="16.42902">
        <ele>35.8</ele>
      </trkpt>
      <trkpt lat="43.51131" lon="16.42916">
        <ele>38.4</ele>
      </trkpt>
      <trkpt lat="43.51108" lon="16.42925">
        <ele>40.2</ele>
      </trkpt>
      <trkpt lat="43.51066" lon="16.430019">
        <ele>40.4</ele>
      </trkpt>
      <trkpt lat="43.51066" lon="16.430019">
        <ele>40.4</ele>
      </trkpt>
      <trkpt lat="43.51058" lon="16.42969">
        <ele>42.7</ele>
      </trkpt>
      <trkpt lat="43.51047" lon="16.42943">
        <ele>45.1</ele>
      </trkpt>
      <trkpt lat="43.51045" lon="16.429369">
        <ele>45.6</ele>
      </trkpt>
      <trkpt lat="43.51039" lon="16.42916">
        <ele>47.3</ele>
      </trkpt>
      <trkpt lat="43.51024" lon="16.42858">
        <ele>52.9</ele>
      </trkpt>
      <trkpt lat="43.51025" lon="16.42836">
        <ele>54.4</ele>
      </trkpt>
      <trkpt lat="43.51027" lon="16.42817">
        <ele>56.9</ele>
      </trkpt>
      <trkpt lat="43.51027" lon="16.42817">
        <ele>56.9</ele>
      </trkpt>
      <trkpt lat="43.51035" lon="16.42757">
        <ele>64.9</ele>
      </trkpt>
      <trkpt lat="43.51039" lon="16.427109">
        <ele>69.4</ele>
      </trkpt>
      <trkpt lat="43.5104" lon="16.42654">
        <ele>74.5</ele>
      </trkpt>
      <trkpt lat="43.51032" lon="16.426189">
        <ele>78.2</ele>
      </trkpt>
      <trkpt lat="43.51024" lon="16.42596">
        <ele>81.5</ele>
      </trkpt>
      <trkpt lat="43.51015" lon="16.42577">
        <ele>85.5</ele>
      </trkpt>
      <trkpt lat="43.51004" lon="16.42558">
        <ele>91.6</ele>
      </trkpt>
      <trkpt lat="43.50998" lon="16.42527">
        <ele>98.5</ele>
      </trkpt>
      <trkpt lat="43.51" lon="16.42516">
        <ele>100.1</ele>
      </trkpt>
      <trkpt lat="43.51007" lon="16.42504">
        <ele>100.4</ele>
      </trkpt>
      <trkpt lat="43.51034" lon="16.424949">
        <ele>94.5</ele>
      </trkpt>
      <trkpt lat="43.51045" lon="16.42488">
        <ele>92.3</ele>
      </trkpt>
      <trkpt lat="43.51051" lon="16.42471">
        <ele>92.5</ele>
      </trkpt>
      <trkpt lat="43.5106" lon="16.42442">
        <ele>92.9</ele>
      </trkpt>
      <trkpt lat="43.51067" lon="16.42408">
        <ele>94.0</ele>
      </trkpt>
      <trkpt lat="43.51071" lon="16.423839">
        <ele>94.2</ele>
      </trkpt>
      <trkpt lat="43.51068" lon="16.42349">
        <ele>97.0</ele>
      </trkpt>
      <trkpt lat="43.51064" lon="16.42323">
        <ele>99.2</ele>
      </trkpt>
      <trkpt lat="43.51056" lon="16.42301">
        <ele>101.7</ele>
      </trkpt>
      <trkpt lat="43.51048" lon="16.42283">
        <ele>103.9</ele>
      </trkpt>
      <trkpt lat="43.51034" lon="16.42266">
        <ele>107.4</ele>
      </trkpt>
      <trkpt lat="43.51023" lon="16.42254">
        <ele>110.0</ele>
      </trkpt>
      <trkpt lat="43.51018" lon="16.42239">
        <ele>111.7</ele>
      </trkpt>
      <trkpt lat="43.51016" lon="16.42221">
        <ele>113.1</ele>
      </trkpt>
      <trkpt lat="43.51021" lon="16.4221">
        <ele>112.6</ele>
      </trkpt>
      <trkpt lat="43.5104" lon="16.421869">
        <ele>109.4</ele>
      </trkpt>
      <trkpt lat="43.51051" lon="16.42173">
        <ele>107.5</ele>
      </trkpt>
      <trkpt lat="43.51058" lon="16.4216">
        <ele>106.8</ele>
      </trkpt>
      <trkpt lat="43.51061" lon="16.42152">
        <ele>106.8</ele>
      </trkpt>
      <trkpt lat="43.51061" lon="16.42147">
        <ele>107.3</ele>
      </trkpt>
      <trkpt lat="43.51059" lon="16.42143">
        <ele>108.2</ele>
      </trkpt>
      <trkpt lat="43.51055" lon="16.42142">
        <ele>109.4</ele>
      </trkpt>
      <trkpt lat="43.51049" lon="16.42146">
        <ele>110.5</ele>
      </trkpt>
      <trkpt lat="43.51041" lon="16.42156">
        <ele>111.4</ele>
      </trkpt>
      <trkpt lat="43.51032" lon="16.421679">
        <ele>112.2</ele>
      </trkpt>
      <trkpt lat="43.51021" lon="16.421759">
        <ele>114.5</ele>
      </trkpt>
      <trkpt lat="43.51006" lon="16.4219">
        <ele>117.2</ele>
      </trkpt>
      <trkpt lat="43.50999" lon="16.421959">
        <ele>118.4</ele>
      </trkpt>
      <trkpt lat="43.50992" lon="16.42207">
        <ele>118.6</ele>
      </trkpt>
      <trkpt lat="43.50988" lon="16.4222">
        <ele>118.3</ele>
      </trkpt>
      <trkpt lat="43.50986" lon="16.42238">
        <ele>117.3</ele>
      </trkpt>
      <trkpt lat="43.50983" lon="16.42278">
        <ele>116.4</ele>
      </trkpt>
      <trkpt lat="43.5098" lon="16.42302">
        <ele>116.3</ele>
      </trkpt>
      <trkpt lat="43.50973" lon="16.42315">
        <ele>116.4</ele>
      </trkpt>
      <trkpt lat="43.50968" lon="16.42319">
        <ele>116.5</ele>
      </trkpt>
      <trkpt lat="43.50964" lon="16.42321">
        <ele>116.7</ele>
      </trkpt>
      <trkpt lat="43.5095" lon="16.4232">
        <ele>117.4</ele>
      </trkpt>
      <trkpt lat="43.50934" lon="16.42313">
        <ele>118.5</ele>
      </trkpt>
      <trkpt lat="43.50924" lon="16.42304">
        <ele>119.7</ele>
      </trkpt>
      <trkpt lat="43.50913" lon="16.42293">
        <ele>120.0</ele>
      </trkpt>
      <trkpt lat="43.50908" lon="16.42275">
        <ele>120.0</ele>
      </trkpt>
      <trkpt lat="43.50907" lon="16.42265">
        <ele>120.5</ele>
      </trkpt>
      <trkpt lat="43.5091" lon="16.4225">
        <ele>122.4</ele>
      </trkpt>
      <trkpt lat="43.50918" lon="16.42227">
        <ele>126.3</ele>
      </trkpt>
      <trkpt lat="43.50947" lon="16.42146">
        <ele>130.8</ele>
      </trkpt>
      <trkpt lat="43.50955" lon="16.42127">
        <ele>132.0</ele>
      </trkpt>
      <trkpt lat="43.5096" lon="16.421109">
        <ele>133.3</ele>
      </trkpt>
      <trkpt lat="43.50962" lon="16.420929">
        <ele>135.3</ele>
      </trkpt>
      <trkpt lat="43.50959" lon="16.42075">
        <ele>137.5</ele>
      </trkpt>
      <trkpt lat="43.5095" lon="16.42034">
        <ele>141.9</ele>
      </trkpt>
      <trkpt lat="43.50945" lon="16.42006">
        <ele>145.3</ele>
      </trkpt>
      <trkpt lat="43.50945" lon="16.41991">
        <ele>146.6</ele>
      </trkpt>
      <trkpt lat="43.50944" lon="16.41978">
        <ele>148.0</ele>
      </trkpt>
      <trkpt lat="43.50946" lon="16.419519">
        <ele>149.8</ele>
      </trkpt>
      <trkpt lat="43.50956" lon="16.419039">
        <ele>150.7</ele>
      </trkpt>
      <trkpt lat="43.50958" lon="16.418859">
        <ele>150.4</ele>
      </trkpt>
      <trkpt lat="43.5096" lon="16.41865">
        <ele>150.2</ele>
      </trkpt>
      <trkpt lat="43.50958" lon="16.418489">
        <ele>150.9</ele>
      </trkpt>
      <trkpt lat="43.50954" lon="16.41832">
        <ele>152.0</ele>
      </trkpt>
      <trkpt lat="43.50948" lon="16.418199">
        <ele>152.8</ele>
      </trkpt>
      <trkpt lat="43.50938" lon="16.41807">
        <ele>154.3</ele>
      </trkpt>
      <trkpt lat="43.50919" lon="16.417929">
        <ele>157.2</ele>
      </trkpt>
      <trkpt lat="43.50903" lon="16.41781">
        <ele>156.0</ele>
      </trkpt>
      <trkpt lat="43.50896" lon="16.417739">
        <ele>155.2</ele>
      </trkpt>
      <trkpt lat="43.5089" lon="16.41762">
        <ele>154.1</ele>
      </trkpt>
      <trkpt lat="43.50881" lon="16.41743">
        <ele>152.5</ele>
      </trkpt>
      <trkpt lat="43.50861" lon="16.41684">
        <ele>147.9</ele>
      </trkpt>
      <trkpt lat="43.5086" lon="16.41691">
        <ele>148.4</ele>
      </trkpt>
      <trkpt lat="43.50853" lon="16.41725">
        <ele>150.8</ele>
      </trkpt>
      <trkpt lat="43.50862" lon="16.41741">
        <ele>152.0</ele>
      </trkpt>
      <trkpt lat="43.50869" lon="16.41756">
        <ele>153.2</ele>
      </trkpt>
      <trkpt lat="43.50872" lon="16.41768">
        <ele>153.9</ele>
      </trkpt>
      <trkpt lat="43.50872" lon="16.41772">
        <ele>154.1</ele>
      </trkpt>
      <trkpt lat="43.50869" lon="16.41776">
        <ele>154.1</ele>
      </trkpt>
      <trkpt lat="43.50872" lon="16.41772">
        <ele>154.1</ele>
      </trkpt>
      <trkpt lat="43.50872" lon="16.41768">
        <ele>153.9</ele>
      </trkpt>
      <trkpt lat="43.50869" lon="16.41756">
        <ele>153.2</ele>
      </trkpt>
      <trkpt lat="43.50862" lon="16.41741">
        <ele>152.0</ele>
      </trkpt>
      <trkpt lat="43.50853" lon="16.41725">
        <ele>150.8</ele>
      </trkpt>
      <trkpt lat="43.5086" lon="16.41691">
        <ele>148.4</ele>
      </trkpt>
      <trkpt lat="43.50861" lon="16.41684">
        <ele>147.9</ele>
      </trkpt>
      <trkpt lat="43.50861" lon="16.41656">
        <ele>146.8</ele>
      </trkpt>
      <trkpt lat="43.50869" lon="16.416">
        <ele>147.0</ele>
      </trkpt>
      <trkpt lat="43.50902" lon="16.41509">
        <ele>151.8</ele>
      </trkpt>
      <trkpt lat="43.50911" lon="16.414439">
        <ele>149.4</ele>
      </trkpt>
      <trkpt lat="43.50922" lon="16.413889">
        <ele>148.5</ele>
      </trkpt>
      <trkpt lat="43.50938" lon="16.41353">
        <ele>146.4</ele>
      </trkpt>
      <trkpt lat="43.50948" lon="16.41309">
        <ele>144.4</ele>
      </trkpt>
      <trkpt lat="43.50946" lon="16.41265">
        <ele>144.1</ele>
      </trkpt>
      <trkpt lat="43.5094" lon="16.412299">
        <ele>143.6</ele>
      </trkpt>
      <trkpt lat="43.50934" lon="16.41188">
        <ele>141.1</ele>
      </trkpt>
      <trkpt lat="43.50928" lon="16.411259">
        <ele>138.2</ele>
      </trkpt>
      <trkpt lat="43.50917" lon="16.410699">
        <ele>138.9</ele>
      </trkpt>
      <trkpt lat="43.50913" lon="16.41034">
        <ele>136.1</ele>
      </trkpt>
      <trkpt lat="43.50918" lon="16.410029">
        <ele>133.8</ele>
      </trkpt>
      <trkpt lat="43.50955" lon="16.40921">
        <ele>126.7</ele>
      </trkpt>
      <trkpt lat="43.5096" lon="16.409089">
        <ele>126.1</ele>
      </trkpt>
      <trkpt lat="43.5097" lon="16.40884">
        <ele>124.6</ele>
      </trkpt>
      <trkpt lat="43.50977" lon="16.40856">
        <ele>124.0</ele>
      </trkpt>
      <trkpt lat="43.50979" lon="16.40828">
        <ele>123.6</ele>
      </trkpt>
      <trkpt lat="43.50973" lon="16.40801">
        <ele>121.8</ele>
      </trkpt>
      <trkpt lat="43.50963" lon="16.40772">
        <ele>120.0</ele>
      </trkpt>
      <trkpt lat="43.50954" lon="16.40744">
        <ele>118.2</ele>
      </trkpt>
      <trkpt lat="43.50949" lon="16.40725">
        <ele>117.1</ele>
      </trkpt>
      <trkpt lat="43.50946" lon="16.4072">
        <ele>116.8</ele>
      </trkpt>
      <trkpt lat="43.50944" lon="16.40716">
        <ele>116.6</ele>
      </trkpt>
      <trkpt lat="43.50941" lon="16.40706">
        <ele>115.9</ele>
      </trkpt>
      <trkpt lat="43.5093" lon="16.40715">
        <ele>116.8</ele>
      </trkpt>
      <trkpt lat="43.50919" lon="16.40729">
        <ele>118.2</ele>
      </trkpt>
      <trkpt lat="43.509" lon="16.40775">
        <ele>115.5</ele>
      </trkpt>
      <trkpt lat="43.5088" lon="16.4084">
        <ele>114.0</ele>
      </trkpt>
      <trkpt lat="43.50871" lon="16.40888">
        <ele>115.8</ele>
      </trkpt>
      <trkpt lat="43.50852" lon="16.409579">
        <ele>118.7</ele>
      </trkpt>
      <trkpt lat="43.50812" lon="16.41064">
        <ele>122.8</ele>
      </trkpt>
      <trkpt lat="43.50795" lon="16.41114">
        <ele>122.4</ele>
      </trkpt>
      <trkpt lat="43.50773" lon="16.41199">
        <ele>123.8</ele>
      </trkpt>
      <trkpt lat="43.50753" lon="16.4128">
        <ele>120.4</ele>
      </trkpt>
      <trkpt lat="43.5075" lon="16.41343">
        <ele>120.8</ele>
      </trkpt>
      <trkpt lat="43.50746" lon="16.41405">
        <ele>117.1</ele>
      </trkpt>
      <trkpt lat="43.50756" lon="16.41467">
        <ele>120.1</ele>
      </trkpt>
      <trkpt lat="43.50765" lon="16.415299">
        <ele>121.0</ele>
      </trkpt>
      <trkpt lat="43.50766" lon="16.41575">
        <ele>117.3</ele>
      </trkpt>
      <trkpt lat="43.50765" lon="16.41634">
        <ele>117.0</ele>
      </trkpt>
      <trkpt lat="43.50762" lon="16.41655">
        <ele>116.1</ele>
      </trkpt>
      <trkpt lat="43.50757" lon="16.41672">
        <ele>114.3</ele>
      </trkpt>
      <trkpt lat="43.50754" lon="16.41686">
        <ele>113.3</ele>
      </trkpt>
      <trkpt lat="43.50754" lon="16.41762">
        <ele>114.2</ele>
      </trkpt>
      <trkpt lat="43.50754" lon="16.418">
        <ele>112.1</ele>
      </trkpt>
      <trkpt lat="43.50756" lon="16.41851">
        <ele>109.3</ele>
      </trkpt>
      <trkpt lat="43.50764" lon="16.41929">
        <ele>105.2</ele>
      </trkpt>
      <trkpt lat="43.50771" lon="16.42">
        <ele>101.3</ele>
      </trkpt>
      <trkpt lat="43.50775" lon="16.42024">
        <ele>101.3</ele>
      </trkpt>
      <trkpt lat="43.50782" lon="16.42051">
        <ele>102.1</ele>
      </trkpt>
      <trkpt lat="43.50792" lon="16.420829">
        <ele>103.2</ele>
      </trkpt>
      <trkpt lat="43.50795" lon="16.42107">
        <ele>101.4</ele>
      </trkpt>
      <trkpt lat="43.50795" lon="16.42125">
        <ele>99.0</ele>
      </trkpt>
      <trkpt lat="43.50795" lon="16.42138">
        <ele>97.3</ele>
      </trkpt>
      <trkpt lat="43.50802" lon="16.421769">
        <ele>96.2</ele>
      </trkpt>
      <trkpt lat="43.50814" lon="16.422429">
        <ele>96.2</ele>
      </trkpt>
      <trkpt lat="43.50818" lon="16.42275">
        <ele>95.1</ele>
      </trkpt>
      <trkpt lat="43.50828" lon="16.4231">
        <ele>95.5</ele>
      </trkpt>
      <trkpt lat="43.50832" lon="16.4234">
        <ele>95.0</ele>
      </trkpt>
      <trkpt lat="43.50827" lon="16.42353">
        <ele>94.2</ele>
      </trkpt>
      <trkpt lat="43.50824" lon="16.42376">
        <ele>94.8</ele>
      </trkpt>
      <trkpt lat="43.50786" lon="16.42484">
        <ele>90.2</ele>
      </trkpt>
      <trkpt lat="43.5078" lon="16.4251">
        <ele>90.4</ele>
      </trkpt>
      <trkpt lat="43.50777" lon="16.42517">
        <ele>90.0</ele>
      </trkpt>
      <trkpt lat="43.50766" lon="16.42545">
        <ele>88.7</ele>
      </trkpt>
      <trkpt lat="43.50743" lon="16.42597">
        <ele>85.0</ele>
      </trkpt>
      <trkpt lat="43.50733" lon="16.42633">
        <ele>82.9</ele>
      </trkpt>
      <trkpt lat="43.50728" lon="16.426739">
        <ele>80.6</ele>
      </trkpt>
      <trkpt lat="43.5073" lon="16.42706">
        <ele>72.6</ele>
      </trkpt>
      <trkpt lat="43.5073" lon="16.4271">
        <ele>71.5</ele>
      </trkpt>
      <trkpt lat="43.50735" lon="16.427299">
        <ele>66.8</ele>
      </trkpt>
      <trkpt lat="43.5074" lon="16.42732">
        <ele>66.9</ele>
      </trkpt>
      <trkpt lat="43.5074" lon="16.42753">
        <ele>60.3</ele>
      </trkpt>
      <trkpt lat="43.50737" lon="16.42798">
        <ele>45.6</ele>
      </trkpt>
      <trkpt lat="43.50736" lon="16.42836">
        <ele>34.6</ele>
      </trkpt>
      <trkpt lat="43.50741" lon="16.42868">
        <ele>41.5</ele>
      </trkpt>
      <trkpt lat="43.50749" lon="16.42901">
        <ele>50.9</ele>
      </trkpt>
      <trkpt lat="43.50765" lon="16.429829">
        <ele>45.7</ele>
      </trkpt>
      <trkpt lat="43.50768" lon="16.43014">
        <ele>42.2</ele>
      </trkpt>
      <trkpt lat="43.50768" lon="16.43014">
        <ele>42.2</ele>
      </trkpt>
      <trkpt lat="43.5077" lon="16.43027">
        <ele>41.5</ele>
      </trkpt>
      <trkpt lat="43.50771" lon="16.43028">
        <ele>41.6</ele>
      </trkpt>
      <trkpt lat="43.50779" lon="16.43027">
        <ele>42.7</ele>
      </trkpt>
      <trkpt lat="43.50814" lon="16.43024">
        <ele>47.2</ele>
      </trkpt>
      <trkpt lat="43.50821" lon="16.43029">
        <ele>47.7</ele>
      </trkpt>
      <trkpt lat="43.50845" lon="16.430399">
        <ele>48.5</ele>
      </trkpt>
      <trkpt lat="43.50854" lon="16.43046">
        <ele>47.9</ele>
      </trkpt>
      <trkpt lat="43.50871" lon="16.43054">
        <ele>47.0</ele>
      </trkpt>
      <trkpt lat="43.50873" lon="16.43055">
        <ele>46.9</ele>
      </trkpt>
      <trkpt lat="43.50942" lon="16.430869">
        <ele>42.0</ele>
      </trkpt>
      <trkpt lat="43.50975" lon="16.43103">
        <ele>40.0</ele>
      </trkpt>
      <trkpt lat="43.51035" lon="16.43132">
        <ele>35.7</ele>
      </trkpt>
      <trkpt lat="43.51044" lon="16.43139">
        <ele>34.9</ele>
      </trkpt>
      <trkpt lat="43.51095" lon="16.43168">
        <ele>30.7</ele>
      </trkpt>
      <trkpt lat="43.51134" lon="16.431899">
        <ele>25.5</ele>
      </trkpt>
      <trkpt lat="43.51156" lon="16.432009">
        <ele>23.1</ele>
      </trkpt>
      <trkpt lat="43.51157" lon="16.432009">
        <ele>23.0</ele>
      </trkpt>
      <trkpt lat="43.51154" lon="16.43236">
        <ele>22.2</ele>
      </trkpt>
      <trkpt lat="43.51155" lon="16.432469">
        <ele>21.8</ele>
      </trkpt>
      <trkpt lat="43.51159" lon="16.43283">
        <ele>21.0</ele>
      </trkpt>
      <trkpt lat="43.51158" lon="16.43298">
        <ele>20.9</ele>
      </trkpt>
      <trkpt lat="43.51155" lon="16.433119">
        <ele>20.9</ele>
      </trkpt>
      <trkpt lat="43.51152" lon="16.43328">
        <ele>20.8</ele>
      </trkpt>
      <trkpt lat="43.51152" lon="16.433309">
        <ele>20.7</ele>
      </trkpt>
      <trkpt lat="43.51142" lon="16.4337">
        <ele>19.1</ele>
      </trkpt>
      <trkpt lat="43.51133" lon="16.434">
        <ele>17.9</ele>
      </trkpt>
      <trkpt lat="43.51131" lon="16.43419">
        <ele>17.0</ele>
      </trkpt>
      <trkpt lat="43.51132" lon="16.43429">
        <ele>16.1</ele>
      </trkpt>
      <trkpt lat="43.5113" lon="16.43452">
        <ele>14.5</ele>
      </trkpt>
      <trkpt lat="43.51129" lon="16.43464">
        <ele>13.6</ele>
      </trkpt>
      <trkpt lat="43.51122" lon="16.435009">
        <ele>11.1</ele>
      </trkpt>
      <trkpt lat="43.51113" lon="16.43534">
        <ele>10.5</ele>
      </trkpt>
      <trkpt lat="43.51112" lon="16.435369">
        <ele>10.4</ele>
      </trkpt>
      <trkpt lat="43.51112" lon="16.435369">
        <ele>10.4</ele>
      </trkpt>
      <trkpt lat="43.51106" lon="16.43563">
        <ele>9.8</ele>
      </trkpt>
      <trkpt lat="43.51104" lon="16.43569">
        <ele>9.7</ele>
      </trkpt>
      <trkpt lat="43.51098" lon="16.43591">
        <ele>9.9</ele>
      </trkpt>
      <trkpt lat="43.51094" lon="16.43605">
        <ele>10.7</ele>
      </trkpt>
      <trkpt lat="43.5109" lon="16.4363">
        <ele>12.1</ele>
      </trkpt>
      <trkpt lat="43.5109" lon="16.43648">
        <ele>13.0</ele>
      </trkpt>
      <trkpt lat="43.5109" lon="16.43661">
        <ele>13.6</ele>
      </trkpt>
      <trkpt lat="43.51087" lon="16.43747">
        <ele>13.1</ele>
      </trkpt>
      <trkpt lat="43.51087" lon="16.43748">
        <ele>13.1</ele>
      </trkpt>
      <trkpt lat="43.51087" lon="16.43748">
        <ele>13.1</ele>
      </trkpt>
      <trkpt lat="43.51075" lon="16.437899">
        <ele>10.7</ele>
      </trkpt>
      <trkpt lat="43.51064" lon="16.43825">
        <ele>9.1</ele>
      </trkpt>
      <trkpt lat="43.5106" lon="16.438379">
        <ele>8.9</ele>
      </trkpt>
      <trkpt lat="43.51058" lon="16.43842">
        <ele>9.1</ele>
      </trkpt>
      <trkpt lat="43.51052" lon="16.4385">
        <ele>9.4</ele>
      </trkpt>
      <trkpt lat="43.5105" lon="16.43853">
        <ele>9.5</ele>
      </trkpt>
      <trkpt lat="43.51048" lon="16.4386">
        <ele>9.8</ele>
      </trkpt>
      <trkpt lat="43.51044" lon="16.43879">
        <ele>10.7</ele>
      </trkpt>
      <trkpt lat="43.51044" lon="16.43905">
        <ele>11.9</ele>
      </trkpt>
      <trkpt lat="43.51045" lon="16.43924">
        <ele>12.8</ele>
      </trkpt>
      <trkpt lat="43.51051" lon="16.439599">
        <ele>14.3</ele>
      </trkpt>
      <trkpt lat="43.51057" lon="16.43981">
        <ele>15.2</ele>
      </trkpt>
      <trkpt lat="43.51051" lon="16.43982">
        <ele>15.2</ele>
      </trkpt>
      <trkpt lat="43.51051" lon="16.43982">
        <ele>15.2</ele>
      </trkpt>
      <trkpt lat="43.51049" lon="16.43982">
        <ele>15.2</ele>
      </trkpt>
      <trkpt lat="43.51048" lon="16.43982">
        <ele>15.2</ele>
      </trkpt>
      <trkpt lat="43.51017" lon="16.43982">
        <ele>15.3</ele>
      </trkpt>
      <trkpt lat="43.50975" lon="16.43967">
        <ele>14.2</ele>
      </trkpt>
      <trkpt lat="43.50975" lon="16.439689">
        <ele>14.2</ele>
      </trkpt>
      <trkpt lat="43.50967" lon="16.44022">
        <ele>14.7</ele>
      </trkpt>
      <trkpt lat="43.50965" lon="16.44039">
        <ele>14.5</ele>
      </trkpt>
      <trkpt lat="43.50965" lon="16.44048">
        <ele>14.4</ele>
      </trkpt>
      <trkpt lat="43.50965" lon="16.44056">
        <ele>14.4</ele>
      </trkpt>
      <trkpt lat="43.5096" lon="16.44065">
        <ele>14.2</ele>
      </trkpt>
      <trkpt lat="43.5095" lon="16.440819">
        <ele>13.8</ele>
      </trkpt>
      <trkpt lat="43.50946" lon="16.44089">
        <ele>13.9</ele>
      </trkpt>
      <trkpt lat="43.50944" lon="16.440909">
        <ele>13.9</ele>
      </trkpt>
      <trkpt lat="43.50917" lon="16.441379">
        <ele>15.0</ele>
      </trkpt>
      <trkpt lat="43.50911" lon="16.44149">
        <ele>15.2</ele>
      </trkpt>
      <trkpt lat="43.50907" lon="16.441569">
        <ele>15.3</ele>
      </trkpt>
      <trkpt lat="43.50903" lon="16.441659">
        <ele>15.5</ele>
      </trkpt>
      <trkpt lat="43.50899" lon="16.44173">
        <ele>15.3</ele>
      </trkpt>
      <trkpt lat="43.50857" lon="16.44152">
        <ele>13.6</ele>
      </trkpt>
      <trkpt lat="43.50814" lon="16.44131">
        <ele>10.8</ele>
      </trkpt>
      <trkpt lat="43.50811" lon="16.441299">
        <ele>10.5</ele>
      </trkpt>
      <trkpt lat="43.50808" lon="16.441279">
        <ele>10.2</ele>
      </trkpt>
      <trkpt lat="43.50742" lon="16.44095">
        <ele>4.6</ele>
      </trkpt>
      <trkpt lat="43.50713" lon="16.440809">
        <ele>3.2</ele>
      </trkpt>
      <trkpt lat="43.50713" lon="16.440809">
        <ele>3.2</ele>
      </trkpt>
      <trkpt lat="43.50711" lon="16.4408">
        <ele>3.1</ele>
      </trkpt>
      <trkpt lat="43.5071" lon="16.44087">
        <ele>3.1</ele>
      </trkpt>
      <trkpt lat="43.50709" lon="16.44087">
        <ele>3.0</ele>
      </trkpt>
      <trkpt lat="43.50707" lon="16.44086">
        <ele>2.9</ele>
      </trkpt>
      <trkpt lat="43.50708" lon="16.44076">
        <ele>3.0</ele>
      </trkpt>
      <trkpt lat="43.50708" lon="16.440719">
        <ele>3.0</ele>
      </trkpt>
      <trkpt lat="43.50708" lon="16.440719">
        <ele>3.0</ele>
      </trkpt>
      <trkpt lat="43.50708" lon="16.440629">
        <ele>3.0</ele>
      </trkpt>
      <trkpt lat="43.5071" lon="16.44052">
        <ele>3.1</ele>
      </trkpt>
      <trkpt lat="43.50729" lon="16.439889">
        <ele>3.6</ele>
      </trkpt>
      <trkpt lat="43.50733" lon="16.43977">
        <ele>3.4</ele>
      </trkpt>
      <trkpt lat="43.50733" lon="16.439689">
        <ele>3.1</ele>
      </trkpt>
      <trkpt lat="43.50732" lon="16.43962">
        <ele>2.8</ele>
      </trkpt>
      <trkpt lat="43.50723" lon="16.43956">
        <ele>2.1</ele>
      </trkpt>
      <trkpt lat="43.50715" lon="16.439509">
        <ele>1.6</ele>
      </trkpt>
      <trkpt lat="43.50714" lon="16.439509">
        <ele>1.5</ele>
      </trkpt>
      <trkpt lat="43.50696" lon="16.439409">
        <ele>0.3</ele>
      </trkpt>
      <trkpt lat="43.50672" lon="16.43928">
        <ele>-1.3</ele>
      </trkpt>
      <trkpt lat="43.50668" lon="16.43926">
        <ele>-1.6</ele>
      </trkpt>
      <trkpt lat="43.50664" lon="16.43926">
        <ele>-1.6</ele>
      </trkpt>
      <trkpt lat="43.50661" lon="16.43927">
        <ele>-1.5</ele>
      </trkpt>
      <trkpt lat="43.50658" lon="16.43933">
        <ele>-1.3</ele>
      </trkpt>
      <trkpt lat="43.50657" lon="16.4394">
        <ele>-1.0</ele>
      </trkpt>
      <trkpt lat="43.5066" lon="16.439979">
        <ele>0.9</ele>
      </trkpt>
      <trkpt lat="43.5066" lon="16.44028">
        <ele>0.8</ele>
      </trkpt>
      <trkpt lat="43.50659" lon="16.44043">
        <ele>0.8</ele>
      </trkpt>
      <trkpt lat="43.50659" lon="16.44043">
        <ele>0.8</ele>
      </trkpt>
      <trkpt lat="43.50657" lon="16.44071">
        <ele>0.6</ele>
      </trkpt>
      <trkpt lat="43.50656" lon="16.44095">
        <ele>0.4</ele>
      </trkpt>
      <trkpt lat="43.50655" lon="16.44105">
        <ele>0.3</ele>
      </trkpt>
      <trkpt lat="43.50653" lon="16.441289">
        <ele>0.0</ele>
      </trkpt>
      <trkpt lat="43.50648" lon="16.441469">
        <ele>-0.3</ele>
      </trkpt>
      <trkpt lat="43.50641" lon="16.441569">
        <ele>-0.6</ele>
      </trkpt>
      <trkpt lat="43.50631" lon="16.44165">
        <ele>-0.9</ele>
      </trkpt>
      <trkpt lat="43.5059" lon="16.44188">
        <ele>-1.2</ele>
      </trkpt>
      <trkpt lat="43.5053" lon="16.44218">
        <ele>-1.7</ele>
      </trkpt>
      <trkpt lat="43.50516" lon="16.44224">
        <ele>-1.7</ele>
      </trkpt>
      <trkpt lat="43.50508" lon="16.44227">
        <ele>-1.7</ele>
      </trkpt>
      <trkpt lat="43.50491" lon="16.442329">
        <ele>-1.8</ele>
      </trkpt>
      <trkpt lat="43.50456" lon="16.44243">
        <ele>-2.2</ele>
      </trkpt>
      <trkpt lat="43.50442" lon="16.44248">
        <ele>-2.4</ele>
      </trkpt>
      <trkpt lat="43.50436" lon="16.44249">
        <ele>-2.5</ele>
      </trkpt>
      <trkpt lat="43.50389" lon="16.44264">
        <ele>-2.1</ele>
      </trkpt>
      <trkpt lat="43.50344" lon="16.44284">
        <ele>-1.2</ele>
      </trkpt>
      <trkpt lat="43.50338" lon="16.442879">
        <ele>-1.1</ele>
      </trkpt>
      <trkpt lat="43.50325" lon="16.44294">
        <ele>-0.9</ele>
      </trkpt>
      <trkpt lat="43.50306" lon="16.44296">
        <ele>-0.6</ele>
      </trkpt>
      <trkpt lat="43.50296" lon="16.442969">
        <ele>-0.5</ele>
      </trkpt>
      <trkpt lat="43.5029" lon="16.44299">
        <ele>-0.4</ele>
      </trkpt>
      <trkpt lat="43.50287" lon="16.44303">
        <ele>-0.3</ele>
      </trkpt>
      <trkpt lat="43.50286" lon="16.44306">
        <ele>-0.2</ele>
      </trkpt>
      <trkpt lat="43.50285" lon="16.44313">
        <ele>-0.1</ele>
      </trkpt>
      <trkpt lat="43.50284" lon="16.44321">
        <ele>0.0</ele>
      </trkpt>
      <trkpt lat="43.50279" lon="16.44334">
        <ele>0.3</ele>
      </trkpt>
      <trkpt lat="43.50277" lon="16.44337">
        <ele>0.4</ele>
      </trkpt>
      <trkpt lat="43.50232" lon="16.44408">
        <ele>4.8</ele>
      </trkpt>
      <trkpt lat="43.50223" lon="16.44421">
        <ele>6.0</ele>
      </trkpt>
      <trkpt lat="43.50201" lon="16.44443">
        <ele>8.0</ele>
      </trkpt>
      <trkpt lat="43.5018" lon="16.444579">
        <ele>8.9</ele>
      </trkpt>
      <trkpt lat="43.50173" lon="16.44462">
        <ele>9.0</ele>
      </trkpt>
      <trkpt lat="43.50163" lon="16.444669">
        <ele>8.9</ele>
      </trkpt>
      <trkpt lat="43.50158" lon="16.4447">
        <ele>8.6</ele>
      </trkpt>
      <trkpt lat="43.50154" lon="16.44474">
        <ele>8.3</ele>
      </trkpt>
      <trkpt lat="43.50153" lon="16.44478">
        <ele>8.0</ele>
      </trkpt>
      <trkpt lat="43.50153" lon="16.44483">
        <ele>7.7</ele>
      </trkpt>
      <trkpt lat="43.50153" lon="16.44487">
        <ele>7.5</ele>
      </trkpt>
      <trkpt lat="43.50157" lon="16.445">
        <ele>6.8</ele>
      </trkpt>
      <trkpt lat="43.5016" lon="16.44507">
        <ele>7.0</ele>
      </trkpt>
      <trkpt lat="43.50163" lon="16.44511">
        <ele>7.3</ele>
      </trkpt>
      <trkpt lat="43.50166" lon="16.44512">
        <ele>7.4</ele>
      </trkpt>
      <trkpt lat="43.50165" lon="16.4452">
        <ele>7.6</ele>
      </trkpt>
      <trkpt lat="43.50165" lon="16.44528">
        <ele>7.9</ele>
      </trkpt>
      <trkpt lat="43.50165" lon="16.44528">
        <ele>7.9</ele>
      </trkpt>
      <trkpt lat="43.50168" lon="16.44538">
        <ele>8.4</ele>
      </trkpt>
      <trkpt lat="43.5018" lon="16.44559">
        <ele>9.1</ele>
      </trkpt>
      <trkpt lat="43.50221" lon="16.44613">
        <ele>7.6</ele>
      </trkpt>
      <trkpt lat="43.50226" lon="16.446169">
        <ele>7.5</ele>
      </trkpt>
      <trkpt lat="43.50231" lon="16.446179">
        <ele>7.6</ele>
      </trkpt>
      <trkpt lat="43.50251" lon="16.446169">
        <ele>8.2</ele>
      </trkpt>
      <trkpt lat="43.50258" lon="16.44621">
        <ele>8.3</ele>
      </trkpt>
      <trkpt lat="43.50263" lon="16.446259">
        <ele>8.4</ele>
      </trkpt>
      <trkpt lat="43.50271" lon="16.44637">
        <ele>8.4</ele>
      </trkpt>
      <trkpt lat="43.50274" lon="16.446739">
        <ele>7.8</ele>
      </trkpt>
      <trkpt lat="43.50275" lon="16.44685">
        <ele>7.7</ele>
      </trkpt>
      <trkpt lat="43.50279" lon="16.44728">
        <ele>7.3</ele>
      </trkpt>
      <trkpt lat="43.50283" lon="16.44772">
        <ele>7.4</ele>
      </trkpt>
      <trkpt lat="43.50284" lon="16.44779">
        <ele>7.6</ele>
      </trkpt>
      <trkpt lat="43.50281" lon="16.4478">
        <ele>7.4</ele>
      </trkpt>
      <trkpt lat="43.50277" lon="16.447849">
        <ele>7.2</ele>
      </trkpt>
      <trkpt lat="43.50275" lon="16.44799">
        <ele>7.2</ele>
      </trkpt>
      <trkpt lat="43.50271" lon="16.44811">
        <ele>6.9</ele>
      </trkpt>
      <trkpt lat="43.50265" lon="16.4482">
        <ele>6.5</ele>
      </trkpt>
      <trkpt lat="43.50244" lon="16.44836">
        <ele>4.9</ele>
      </trkpt>
      <trkpt lat="43.50232" lon="16.44848">
        <ele>5.0</ele>
      </trkpt>
      <trkpt lat="43.5023" lon="16.448519">
        <ele>5.2</ele>
      </trkpt>
      <trkpt lat="43.50228" lon="16.44856">
        <ele>5.3</ele>
      </trkpt>
      <trkpt lat="43.5022" lon="16.44865">
        <ele>5.3</ele>
      </trkpt>
      <trkpt lat="43.50205" lon="16.44892">
        <ele>5.7</ele>
      </trkpt>
      <trkpt lat="43.50168" lon="16.44963">
        <ele>7.0</ele>
      </trkpt>
      <trkpt lat="43.50162" lon="16.449819">
        <ele>8.0</ele>
      </trkpt>
      <trkpt lat="43.50158" lon="16.45016">
        <ele>10.1</ele>
      </trkpt>
      <trkpt lat="43.50155" lon="16.45036">
        <ele>11.2</ele>
      </trkpt>
      <trkpt lat="43.50151" lon="16.45051">
        <ele>11.8</ele>
      </trkpt>
      <trkpt lat="43.5015" lon="16.4506">
        <ele>12.3</ele>
      </trkpt>
      <trkpt lat="43.50146" lon="16.451049">
        <ele>14.4</ele>
      </trkpt>
      <trkpt lat="43.50144" lon="16.45146">
        <ele>15.9</ele>
      </trkpt>
      <trkpt lat="43.50137" lon="16.452169">
        <ele>16.9</ele>
      </trkpt>
      <trkpt lat="43.50136" lon="16.45233">
        <ele>17.2</ele>
      </trkpt>
      <trkpt lat="43.50133" lon="16.45289">
        <ele>17.3</ele>
      </trkpt>
      <trkpt lat="43.50133" lon="16.453499">
        <ele>17.0</ele>
      </trkpt>
      <trkpt lat="43.50131" lon="16.45397">
        <ele>15.0</ele>
      </trkpt>
      <trkpt lat="43.50131" lon="16.454059">
        <ele>14.7</ele>
      </trkpt>
      <trkpt lat="43.50132" lon="16.45438">
        <ele>13.4</ele>
      </trkpt>
      <trkpt lat="43.50136" lon="16.45484">
        <ele>11.6</ele>
      </trkpt>
      <trkpt lat="43.50138" lon="16.45497">
        <ele>11.1</ele>
      </trkpt>
      <trkpt lat="43.50149" lon="16.4556">
        <ele>8.6</ele>
      </trkpt>
      <trkpt lat="43.50158" lon="16.45615">
        <ele>7.8</ele>
      </trkpt>
      <trkpt lat="43.50161" lon="16.45628">
        <ele>8.1</ele>
      </trkpt>
      <trkpt lat="43.50164" lon="16.45648">
        <ele>8.5</ele>
      </trkpt>
      <trkpt lat="43.50175" lon="16.45718">
        <ele>9.6</ele>
      </trkpt>
      <trkpt lat="43.50167" lon="16.45723">
        <ele>9.0</ele>
      </trkpt>
      <trkpt lat="43.50131" lon="16.45745">
        <ele>5.1</ele>
      </trkpt>
      <trkpt lat="43.50124" lon="16.457519">
        <ele>4.5</ele>
      </trkpt>
      <trkpt lat="43.50118" lon="16.457609">
        <ele>4.0</ele>
      </trkpt>
      <trkpt lat="43.50112" lon="16.45776">
        <ele>3.6</ele>
      </trkpt>
      <trkpt lat="43.5011" lon="16.45787">
        <ele>3.6</ele>
      </trkpt>
      <trkpt lat="43.5011" lon="16.45794">
        <ele>3.7</ele>
      </trkpt>
      <trkpt lat="43.50104" lon="16.45853">
        <ele>3.7</ele>
      </trkpt>
      <trkpt lat="43.50101" lon="16.459119">
        <ele>3.6</ele>
      </trkpt>
      <trkpt lat="43.50097" lon="16.45963">
        <ele>3.1</ele>
      </trkpt>
      <trkpt lat="43.50095" lon="16.45998">
        <ele>2.9</ele>
      </trkpt>
      <trkpt lat="43.50091" lon="16.46068">
        <ele>3.7</ele>
      </trkpt>
      <trkpt lat="43.50095" lon="16.46104">
        <ele>3.9</ele>
      </trkpt>
      <trkpt lat="43.50102" lon="16.46133">
        <ele>3.9</ele>
      </trkpt>
      <trkpt lat="43.50118" lon="16.46172">
        <ele>5.4</ele>
      </trkpt>
      <trkpt lat="43.50127" lon="16.46207">
        <ele>6.6</ele>
      </trkpt>
      <trkpt lat="43.5014" lon="16.46265">
        <ele>7.7</ele>
      </trkpt>
      <trkpt lat="43.50142" lon="16.46274">
        <ele>7.6</ele>
      </trkpt>
      <trkpt lat="43.50156" lon="16.46336">
        <ele>6.3</ele>
      </trkpt>
      <trkpt lat="43.50157" lon="16.46341">
        <ele>6.0</ele>
      </trkpt>
      <trkpt lat="43.50157" lon="16.46341">
        <ele>6.0</ele>
      </trkpt>
      <trkpt lat="43.5016" lon="16.463519">
        <ele>5.5</ele>
      </trkpt>
      <trkpt lat="43.50169" lon="16.463899">
        <ele>3.0</ele>
      </trkpt>
      <trkpt lat="43.50177" lon="16.464009">
        <ele>3.4</ele>
      </trkpt>
      <trkpt lat="43.50192" lon="16.46408">
        <ele>5.4</ele>
      </trkpt>
      <trkpt lat="43.50203" lon="16.464179">
        <ele>6.4</ele>
      </trkpt>
      <trkpt lat="43.50211" lon="16.46431">
        <ele>6.8</ele>
      </trkpt>
      <trkpt lat="43.50215" lon="16.46442">
        <ele>6.7</ele>
      </trkpt>
      <trkpt lat="43.50224" lon="16.46483">
        <ele>4.7</ele>
      </trkpt>
      <trkpt lat="43.50229" lon="16.46514">
        <ele>3.4</ele>
      </trkpt>
      <trkpt lat="43.50229" lon="16.465309">
        <ele>2.7</ele>
      </trkpt>
      <trkpt lat="43.50224" lon="16.46601">
        <ele>0.0</ele>
      </trkpt>
      <trkpt lat="43.50223" lon="16.46604">
        <ele>0.0</ele>
      </trkpt>
      <trkpt lat="43.50222" lon="16.46612">
        <ele>-0.1</ele>
      </trkpt>
      <trkpt lat="43.50216" lon="16.46636">
        <ele>-0.6</ele>
      </trkpt>
      <trkpt lat="43.50201" lon="16.46668">
        <ele>-1.2</ele>
      </trkpt>
      <trkpt lat="43.50183" lon="16.46684">
        <ele>-0.1</ele>
      </trkpt>
      <trkpt lat="43.50122" lon="16.46715">
        <ele>1.3</ele>
      </trkpt>
      <trkpt lat="43.50113" lon="16.46724">
        <ele>1.4</ele>
      </trkpt>
      <trkpt lat="43.5011" lon="16.46734">
        <ele>1.6</ele>
      </trkpt>
      <trkpt lat="43.50112" lon="16.467469">
        <ele>2.3</ele>
      </trkpt>
      <trkpt lat="43.50132" lon="16.468229">
        <ele>4.1</ele>
      </trkpt>
      <trkpt lat="43.50141" lon="16.468499">
        <ele>4.6</ele>
      </trkpt>
      <trkpt lat="43.50157" lon="16.4688">
        <ele>5.2</ele>
      </trkpt>
      <trkpt lat="43.50162" lon="16.468969">
        <ele>5.2</ele>
      </trkpt>
      <trkpt lat="43.50167" lon="16.46918">
        <ele>5.1</ele>
      </trkpt>
      <trkpt lat="43.50168" lon="16.46937">
        <ele>5.0</ele>
      </trkpt>
      <trkpt lat="43.50168" lon="16.469619">
        <ele>4.7</ele>
      </trkpt>
      <trkpt lat="43.50165" lon="16.46983">
        <ele>4.1</ele>
      </trkpt>
      <trkpt lat="43.50162" lon="16.46998">
        <ele>3.8</ele>
      </trkpt>
      <trkpt lat="43.50162" lon="16.47008">
        <ele>3.3</ele>
      </trkpt>
      <trkpt lat="43.50165" lon="16.47016">
        <ele>3.0</ele>
      </trkpt>
      <trkpt lat="43.50202" lon="16.47091">
        <ele>7.3</ele>
      </trkpt>
      <trkpt lat="43.50206" lon="16.47102">
        <ele>7.9</ele>
      </trkpt>
      <trkpt lat="43.5021" lon="16.471219">
        <ele>8.2</ele>
      </trkpt>
      <trkpt lat="43.5021" lon="16.471219">
        <ele>8.2</ele>
      </trkpt>
      <trkpt lat="43.5021" lon="16.47154">
        <ele>7.2</ele>
      </trkpt>
      <trkpt lat="43.50211" lon="16.47177">
        <ele>6.5</ele>
      </trkpt>
      <trkpt lat="43.50213" lon="16.4719">
        <ele>6.3</ele>
      </trkpt>
      <trkpt lat="43.50216" lon="16.472">
        <ele>6.3</ele>
      </trkpt>
      <trkpt lat="43.50226" lon="16.47218">
        <ele>6.6</ele>
      </trkpt>
      <trkpt lat="43.5025" lon="16.47239">
        <ele>7.8</ele>
      </trkpt>
      <trkpt lat="43.50257" lon="16.47251">
        <ele>8.4</ele>
      </trkpt>
      <trkpt lat="43.50262" lon="16.4726">
        <ele>9.2</ele>
      </trkpt>
      <trkpt lat="43.50282" lon="16.47316">
        <ele>11.9</ele>
      </trkpt>
      <trkpt lat="43.50285" lon="16.473299">
        <ele>12.2</ele>
      </trkpt>
      <trkpt lat="43.50293" lon="16.47391">
        <ele>11.0</ele>
      </trkpt>
      <trkpt lat="43.50303" lon="16.47464">
        <ele>9.2</ele>
      </trkpt>
      <trkpt lat="43.50313" lon="16.47537">
        <ele>6.7</ele>
      </trkpt>
      <trkpt lat="43.50328" lon="16.47641">
        <ele>5.6</ele>
      </trkpt>
      <trkpt lat="43.50343" lon="16.477519">
        <ele>9.2</ele>
      </trkpt>
      <trkpt lat="43.50344" lon="16.47758">
        <ele>9.3</ele>
      </trkpt>
      <trkpt lat="43.50347" lon="16.477879">
        <ele>9.9</ele>
      </trkpt>
      <trkpt lat="43.50347" lon="16.478259">
        <ele>10.2</ele>
      </trkpt>
      <trkpt lat="43.50347" lon="16.478639">
        <ele>9.8</ele>
      </trkpt>
      <trkpt lat="43.50341" lon="16.47898">
        <ele>8.0</ele>
      </trkpt>
      <trkpt lat="43.50333" lon="16.479299">
        <ele>6.0</ele>
      </trkpt>
      <trkpt lat="43.5032" lon="16.479669">
        <ele>4.7</ele>
      </trkpt>
      <trkpt lat="43.50309" lon="16.47992">
        <ele>3.7</ele>
      </trkpt>
      <trkpt lat="43.50286" lon="16.48038">
        <ele>2.4</ele>
      </trkpt>
      <trkpt lat="43.50243" lon="16.48119">
        <ele>3.3</ele>
      </trkpt>
      <trkpt lat="43.5023" lon="16.481449">
        <ele>4.1</ele>
      </trkpt>
      <trkpt lat="43.50223" lon="16.48157">
        <ele>4.3</ele>
      </trkpt>
      <trkpt lat="43.50203" lon="16.48198">
        <ele>4.5</ele>
      </trkpt>
      <trkpt lat="43.50198" lon="16.482119">
        <ele>4.5</ele>
      </trkpt>
      <trkpt lat="43.50193" lon="16.48226">
        <ele>4.5</ele>
      </trkpt>
      <trkpt lat="43.50187" lon="16.4826">
        <ele>4.8</ele>
      </trkpt>
      <trkpt lat="43.50185" lon="16.48299">
        <ele>5.0</ele>
      </trkpt>
      <trkpt lat="43.50188" lon="16.48328">
        <ele>5.8</ele>
      </trkpt>
      <trkpt lat="43.50192" lon="16.48358">
        <ele>6.3</ele>
      </trkpt>
      <trkpt lat="43.50215" lon="16.48451">
        <ele>9.0</ele>
      </trkpt>
      <trkpt lat="43.50219" lon="16.48529">
        <ele>8.8</ele>
      </trkpt>
      <trkpt lat="43.5022" lon="16.485679">
        <ele>7.4</ele>
      </trkpt>
      <trkpt lat="43.50217" lon="16.48603">
        <ele>6.1</ele>
      </trkpt>
      <trkpt lat="43.50216" lon="16.48612">
        <ele>5.8</ele>
      </trkpt>
      <trkpt lat="43.50212" lon="16.48669">
        <ele>4.4</ele>
      </trkpt>
      <trkpt lat="43.50209" lon="16.486889">
        <ele>4.6</ele>
      </trkpt>
      <trkpt lat="43.50204" lon="16.48715">
        <ele>4.8</ele>
      </trkpt>
      <trkpt lat="43.5018" lon="16.48808">
        <ele>6.0</ele>
      </trkpt>
      <trkpt lat="43.50178" lon="16.48817">
        <ele>6.2</ele>
      </trkpt>
      <trkpt lat="43.5017" lon="16.48881">
        <ele>5.7</ele>
      </trkpt>
      <trkpt lat="43.50169" lon="16.48885">
        <ele>5.6</ele>
      </trkpt>
      <trkpt lat="43.50171" lon="16.4895">
        <ele>5.4</ele>
      </trkpt>
      <trkpt lat="43.50188" lon="16.49059">
        <ele>4.3</ele>
      </trkpt>
      <trkpt lat="43.50198" lon="16.49161">
        <ele>6.2</ele>
      </trkpt>
      <trkpt lat="43.502" lon="16.491969">
        <ele>7.1</ele>
      </trkpt>
      <trkpt lat="43.50203" lon="16.49223">
        <ele>7.9</ele>
      </trkpt>
      <trkpt lat="43.50206" lon="16.49238">
        <ele>8.5</ele>
      </trkpt>
      <trkpt lat="43.5021" lon="16.49247">
        <ele>9.1</ele>
      </trkpt>
      <trkpt lat="43.50215" lon="16.49257">
        <ele>9.9</ele>
      </trkpt>
      <trkpt lat="43.50222" lon="16.492629">
        <ele>11.0</ele>
      </trkpt>
      <trkpt lat="43.50229" lon="16.49266">
        <ele>11.9</ele>
      </trkpt>
      <trkpt lat="43.50237" lon="16.49267">
        <ele>13.0</ele>
      </trkpt>
      <trkpt lat="43.50252" lon="16.492619">
        <ele>14.6</ele>
      </trkpt>
      <trkpt lat="43.50264" lon="16.49258">
        <ele>15.8</ele>
      </trkpt>
      <trkpt lat="43.50288" lon="16.49246">
        <ele>18.0</ele>
      </trkpt>
      <trkpt lat="43.50316" lon="16.49241">
        <ele>20.8</ele>
      </trkpt>
      <trkpt lat="43.50363" lon="16.49241">
        <ele>25.3</ele>
      </trkpt>
      <trkpt lat="43.50369" lon="16.49242">
        <ele>25.9</ele>
      </trkpt>
      <trkpt lat="43.50372" lon="16.49249">
        <ele>26.2</ele>
      </trkpt>
      <trkpt lat="43.50373" lon="16.49288">
        <ele>26.4</ele>
      </trkpt>
      <trkpt lat="43.50375" lon="16.49336">
        <ele>26.6</ele>
      </trkpt>
      <trkpt lat="43.50376" lon="16.493459">
        <ele>27.0</ele>
      </trkpt>
      <trkpt lat="43.50374" lon="16.494119">
        <ele>29.3</ele>
      </trkpt>
      <trkpt lat="43.50371" lon="16.49424">
        <ele>29.8</ele>
      </trkpt>
      <trkpt lat="43.50365" lon="16.49436">
        <ele>30.2</ele>
      </trkpt>
      <trkpt lat="43.50362" lon="16.49448">
        <ele>30.6</ele>
      </trkpt>
      <trkpt lat="43.5036" lon="16.49461">
        <ele>31.1</ele>
      </trkpt>
      <trkpt lat="43.50362" lon="16.49495">
        <ele>32.5</ele>
      </trkpt>
      <trkpt lat="43.50364" lon="16.495259">
        <ele>34.1</ele>
      </trkpt>
      <trkpt lat="43.50366" lon="16.4953">
        <ele>34.4</ele>
      </trkpt>
      <trkpt lat="43.5037" lon="16.495339">
        <ele>34.8</ele>
      </trkpt>
      <trkpt lat="43.50383" lon="16.495349">
        <ele>35.5</ele>
      </trkpt>
      <trkpt lat="43.50407" lon="16.49531">
        <ele>36.2</ele>
      </trkpt>
      <trkpt lat="43.5043" lon="16.49533">
        <ele>38.0</ele>
      </trkpt>
      <trkpt lat="43.50443" lon="16.49533">
        <ele>39.2</ele>
      </trkpt>
      <trkpt lat="43.50445" lon="16.49533">
        <ele>39.4</ele>
      </trkpt>
      <trkpt lat="43.50481" lon="16.49533">
        <ele>42.6</ele>
      </trkpt>
      <trkpt lat="43.50501" lon="16.495349">
        <ele>44.6</ele>
      </trkpt>
      <trkpt lat="43.50533" lon="16.4954">
        <ele>48.5</ele>
      </trkpt>
      <trkpt lat="43.50541" lon="16.49541">
        <ele>49.4</ele>
      </trkpt>
      <trkpt lat="43.50584" lon="16.49555">
        <ele>54.4</ele>
      </trkpt>
      <trkpt lat="43.50638" lon="16.49577">
        <ele>58.8</ele>
      </trkpt>
      <trkpt lat="43.50693" lon="16.495989">
        <ele>64.5</ele>
      </trkpt>
      <trkpt lat="43.50759" lon="16.496279">
        <ele>71.3</ele>
      </trkpt>
      <trkpt lat="43.50754" lon="16.49633">
        <ele>71.5</ele>
      </trkpt>
      <trkpt lat="43.50747" lon="16.496469">
        <ele>71.8</ele>
      </trkpt>
      <trkpt lat="43.5074" lon="16.49671">
        <ele>72.4</ele>
      </trkpt>
      <trkpt lat="43.50731" lon="16.497">
        <ele>72.8</ele>
      </trkpt>
      <trkpt lat="43.50721" lon="16.49733">
        <ele>73.3</ele>
      </trkpt>
      <trkpt lat="43.50703" lon="16.49777">
        <ele>73.0</ele>
      </trkpt>
      <trkpt lat="43.50693" lon="16.49796">
        <ele>72.9</ele>
      </trkpt>
      <trkpt lat="43.50685" lon="16.49813">
        <ele>72.9</ele>
      </trkpt>
      <trkpt lat="43.50665" lon="16.49857">
        <ele>73.8</ele>
      </trkpt>
      <trkpt lat="43.50657" lon="16.49869">
        <ele>73.9</ele>
      </trkpt>
      <trkpt lat="43.5063" lon="16.49932">
        <ele>74.3</ele>
      </trkpt>
      <trkpt lat="43.50615" lon="16.49953">
        <ele>73.5</ele>
      </trkpt>
      <trkpt lat="43.50597" lon="16.49992">
        <ele>72.9</ele>
      </trkpt>
      <trkpt lat="43.50585" lon="16.50024">
        <ele>72.7</ele>
      </trkpt>
      <trkpt lat="43.50574" lon="16.50054">
        <ele>71.8</ele>
      </trkpt>
      <trkpt lat="43.50569" lon="16.50074">
        <ele>71.1</ele>
      </trkpt>
      <trkpt lat="43.5056" lon="16.50099">
        <ele>69.9</ele>
      </trkpt>
      <trkpt lat="43.50537" lon="16.50156">
        <ele>66.9</ele>
      </trkpt>
      <trkpt lat="43.50525" lon="16.50198">
        <ele>65.2</ele>
      </trkpt>
      <trkpt lat="43.50517" lon="16.5024">
        <ele>64.3</ele>
      </trkpt>
      <trkpt lat="43.50504" lon="16.502759">
        <ele>64.3</ele>
      </trkpt>
      <trkpt lat="43.50487" lon="16.50309">
        <ele>64.6</ele>
      </trkpt>
      <trkpt lat="43.50471" lon="16.503309">
        <ele>65.0</ele>
      </trkpt>
      <trkpt lat="43.50468" lon="16.50336">
        <ele>64.9</ele>
      </trkpt>
      <trkpt lat="43.50448" lon="16.50384">
        <ele>63.7</ele>
      </trkpt>
      <trkpt lat="43.50418" lon="16.5045">
        <ele>62.8</ele>
      </trkpt>
      <trkpt lat="43.50388" lon="16.50516">
        <ele>59.1</ele>
      </trkpt>
      <trkpt lat="43.50355" lon="16.50593">
        <ele>53.7</ele>
      </trkpt>
      <trkpt lat="43.50348" lon="16.50615">
        <ele>52.6</ele>
      </trkpt>
      <trkpt lat="43.50399" lon="16.50647">
        <ele>53.9</ele>
      </trkpt>
      <trkpt lat="43.50407" lon="16.50673">
        <ele>53.5</ele>
      </trkpt>
      <trkpt lat="43.50411" lon="16.506989">
        <ele>53.3</ele>
      </trkpt>
      <trkpt lat="43.50399" lon="16.5075">
        <ele>51.9</ele>
      </trkpt>
      <trkpt lat="43.50392" lon="16.5078">
        <ele>51.1</ele>
      </trkpt>
      <trkpt lat="43.50377" lon="16.50807">
        <ele>49.6</ele>
      </trkpt>
      <trkpt lat="43.50348" lon="16.50865">
        <ele>46.6</ele>
      </trkpt>
      <trkpt lat="43.50334" lon="16.509039">
        <ele>46.0</ele>
      </trkpt>
      <trkpt lat="43.50319" lon="16.50959">
        <ele>45.2</ele>
      </trkpt>
      <trkpt lat="43.50294" lon="16.510349">
        <ele>42.9</ele>
      </trkpt>
      <trkpt lat="43.50289" lon="16.510539">
        <ele>42.8</ele>
      </trkpt>
      <trkpt lat="43.50272" lon="16.5109">
        <ele>42.3</ele>
      </trkpt>
      <trkpt lat="43.50259" lon="16.51105">
        <ele>42.0</ele>
      </trkpt>
      <trkpt lat="43.5025" lon="16.51119">
        <ele>42.3</ele>
      </trkpt>
      <trkpt lat="43.50248" lon="16.51122">
        <ele>42.1</ele>
      </trkpt>
      <trkpt lat="43.50241" lon="16.511379">
        <ele>42.0</ele>
      </trkpt>
      <trkpt lat="43.50237" lon="16.51159">
        <ele>42.5</ele>
      </trkpt>
      <trkpt lat="43.50237" lon="16.5117">
        <ele>42.7</ele>
      </trkpt>
      <trkpt lat="43.5024" lon="16.511859">
        <ele>41.9</ele>
      </trkpt>
      <trkpt lat="43.50244" lon="16.51208">
        <ele>40.7</ele>
      </trkpt>
      <trkpt lat="43.50243" lon="16.51221">
        <ele>39.7</ele>
      </trkpt>
      <trkpt lat="43.50235" lon="16.5124">
        <ele>38.1</ele>
      </trkpt>
      <trkpt lat="43.50232" lon="16.51247">
        <ele>37.5</ele>
      </trkpt>
      <trkpt lat="43.50223" lon="16.51319">
        <ele>32.6</ele>
      </trkpt>
      <trkpt lat="43.50222" lon="16.51329">
        <ele>31.9</ele>
      </trkpt>
      <trkpt lat="43.50219" lon="16.51357">
        <ele>30.5</ele>
      </trkpt>
      <trkpt lat="43.50216" lon="16.513739">
        <ele>29.7</ele>
      </trkpt>
      <trkpt lat="43.50208" lon="16.51388">
        <ele>29.4</ele>
      </trkpt>
      <trkpt lat="43.50207" lon="16.51391">
        <ele>29.3</ele>
      </trkpt>
      <trkpt lat="43.50204" lon="16.514009">
        <ele>29.0</ele>
      </trkpt>
      <trkpt lat="43.50204" lon="16.51415">
        <ele>28.4</ele>
      </trkpt>
      <trkpt lat="43.50207" lon="16.51435">
        <ele>27.1</ele>
      </trkpt>
      <trkpt lat="43.50208" lon="16.514489">
        <ele>26.3</ele>
      </trkpt>
      <trkpt lat="43.50203" lon="16.51474">
        <ele>25.3</ele>
      </trkpt>
      <trkpt lat="43.50192" lon="16.5151">
        <ele>24.1</ele>
      </trkpt>
      <trkpt lat="43.50186" lon="16.51522">
        <ele>23.6</ele>
      </trkpt>
      <trkpt lat="43.50176" lon="16.51531">
        <ele>23.7</ele>
      </trkpt>
      <trkpt lat="43.50154" lon="16.51538">
        <ele>22.0</ele>
      </trkpt>
      <trkpt lat="43.50143" lon="16.51545">
        <ele>19.9</ele>
      </trkpt>
      <trkpt lat="43.50136" lon="16.51554">
        <ele>18.3</ele>
      </trkpt>
      <trkpt lat="43.50131" lon="16.51579">
        <ele>16.0</ele>
      </trkpt>
      <trkpt lat="43.50114" lon="16.5169">
        <ele>12.7</ele>
      </trkpt>
      <trkpt lat="43.50102" lon="16.51753">
        <ele>12.9</ele>
      </trkpt>
      <trkpt lat="43.50092" lon="16.518059">
        <ele>12.1</ele>
      </trkpt>
      <trkpt lat="43.50075" lon="16.518609">
        <ele>10.2</ele>
      </trkpt>
      <trkpt lat="43.50057" lon="16.51901">
        <ele>7.1</ele>
      </trkpt>
      <trkpt lat="43.50038" lon="16.51929">
        <ele>4.7</ele>
      </trkpt>
      <trkpt lat="43.5003" lon="16.51944">
        <ele>4.2</ele>
      </trkpt>
      <trkpt lat="43.50002" lon="16.52013">
        <ele>4.7</ele>
      </trkpt>
      <trkpt lat="43.49975" lon="16.52075">
        <ele>2.2</ele>
      </trkpt>
      <trkpt lat="43.49963" lon="16.52108">
        <ele>2.2</ele>
      </trkpt>
      <trkpt lat="43.4996" lon="16.52121">
        <ele>2.4</ele>
      </trkpt>
      <trkpt lat="43.4996" lon="16.52128">
        <ele>2.6</ele>
      </trkpt>
      <trkpt lat="43.49958" lon="16.52138">
        <ele>2.8</ele>
      </trkpt>
      <trkpt lat="43.4994" lon="16.521709">
        <ele>4.2</ele>
      </trkpt>
      <trkpt lat="43.49939" lon="16.52178">
        <ele>4.3</ele>
      </trkpt>
      <trkpt lat="43.49939" lon="16.52185">
        <ele>4.3</ele>
      </trkpt>
      <trkpt lat="43.4994" lon="16.52195">
        <ele>4.3</ele>
      </trkpt>
      <trkpt lat="43.49943" lon="16.52203">
        <ele>4.2</ele>
      </trkpt>
      <trkpt lat="43.49953" lon="16.52221">
        <ele>3.8</ele>
      </trkpt>
      <trkpt lat="43.49959" lon="16.522279">
        <ele>3.5</ele>
      </trkpt>
      <trkpt lat="43.49967" lon="16.52232">
        <ele>3.0</ele>
      </trkpt>
      <trkpt lat="43.5" lon="16.522359">
        <ele>1.2</ele>
      </trkpt>
      <trkpt lat="43.50013" lon="16.522359">
        <ele>1.4</ele>
      </trkpt>
      <trkpt lat="43.50053" lon="16.52244">
        <ele>1.8</ele>
      </trkpt>
      <trkpt lat="43.50062" lon="16.522469">
        <ele>1.8</ele>
      </trkpt>
      <trkpt lat="43.5007" lon="16.52253">
        <ele>1.9</ele>
      </trkpt>
      <trkpt lat="43.5007" lon="16.52253">
        <ele>1.9</ele>
      </trkpt>
      <trkpt lat="43.50078" lon="16.52264">
        <ele>2.1</ele>
      </trkpt>
      <trkpt lat="43.50093" lon="16.52289">
        <ele>3.4</ele>
      </trkpt>
      <trkpt lat="43.50127" lon="16.52344">
        <ele>5.9</ele>
      </trkpt>
      <trkpt lat="43.50161" lon="16.52398">
        <ele>7.7</ele>
      </trkpt>
      <trkpt lat="43.50212" lon="16.52483">
        <ele>5.3</ele>
      </trkpt>
      <trkpt lat="43.5024" lon="16.52525">
        <ele>6.1</ele>
      </trkpt>
      <trkpt lat="43.50257" lon="16.525459">
        <ele>6.9</ele>
      </trkpt>
      <trkpt lat="43.50303" lon="16.52595">
        <ele>5.8</ele>
      </trkpt>
      <trkpt lat="43.50309" lon="16.526">
        <ele>5.8</ele>
      </trkpt>
      <trkpt lat="43.50315" lon="16.526029">
        <ele>5.7</ele>
      </trkpt>
      <trkpt lat="43.50326" lon="16.526039">
        <ele>5.6</ele>
      </trkpt>
      <trkpt lat="43.50354" lon="16.52599">
        <ele>4.3</ele>
      </trkpt>
      <trkpt lat="43.50375" lon="16.52599">
        <ele>3.3</ele>
      </trkpt>
      <trkpt lat="43.50431" lon="16.525929">
        <ele>1.2</ele>
      </trkpt>
      <trkpt lat="43.50448" lon="16.525939">
        <ele>1.4</ele>
      </trkpt>
      <trkpt lat="43.50455" lon="16.52596">
        <ele>1.5</ele>
      </trkpt>
      <trkpt lat="43.50465" lon="16.526019">
        <ele>1.5</ele>
      </trkpt>
      <trkpt lat="43.50493" lon="16.52625">
        <ele>1.5</ele>
      </trkpt>
      <trkpt lat="43.50558" lon="16.52681">
        <ele>-1.1</ele>
      </trkpt>
      <trkpt lat="43.50623" lon="16.52738">
        <ele>-1.5</ele>
      </trkpt>
      <trkpt lat="43.50632" lon="16.52747">
        <ele>-1.4</ele>
      </trkpt>
      <trkpt lat="43.50636" lon="16.527349">
        <ele>-1.3</ele>
      </trkpt>
      <trkpt lat="43.50645" lon="16.52705">
        <ele>-0.9</ele>
      </trkpt>
      <trkpt lat="43.50657" lon="16.526589">
        <ele>-0.2</ele>
      </trkpt>
      <trkpt lat="43.50663" lon="16.52626">
        <ele>-0.1</ele>
      </trkpt>
      <trkpt lat="43.50666" lon="16.52607">
        <ele>0.0</ele>
      </trkpt>
      <trkpt lat="43.50672" lon="16.52553">
        <ele>1.1</ele>
      </trkpt>
      <trkpt lat="43.50674" lon="16.52487">
        <ele>2.7</ele>
      </trkpt>
      <trkpt lat="43.50673" lon="16.524709">
        <ele>2.9</ele>
      </trkpt>
      <trkpt lat="43.50671" lon="16.524339">
        <ele>3.1</ele>
      </trkpt>
      <trkpt lat="43.50665" lon="16.52376">
        <ele>2.5</ele>
      </trkpt>
      <trkpt lat="43.50654" lon="16.522939">
        <ele>2.6</ele>
      </trkpt>
      <trkpt lat="43.50643" lon="16.52213">
        <ele>3.6</ele>
      </trkpt>
      <trkpt lat="43.50633" lon="16.52137">
        <ele>4.7</ele>
      </trkpt>
      <trkpt lat="43.50623" lon="16.5206">
        <ele>7.2</ele>
      </trkpt>
      <trkpt lat="43.50636" lon="16.51996">
        <ele>10.8</ele>
      </trkpt>
      <trkpt lat="43.50651" lon="16.519369">
        <ele>15.1</ele>
      </trkpt>
      <trkpt lat="43.50653" lon="16.51926">
        <ele>15.8</ele>
      </trkpt>
      <trkpt lat="43.50647" lon="16.51874">
        <ele>17.0</ele>
      </trkpt>
      <trkpt lat="43.50662" lon="16.518339">
        <ele>20.4</ele>
      </trkpt>
      <trkpt lat="43.50662" lon="16.51794">
        <ele>21.8</ele>
      </trkpt>
      <trkpt lat="43.50659" lon="16.51765">
        <ele>22.4</ele>
      </trkpt>
      <trkpt lat="43.50657" lon="16.51716">
        <ele>24.0</ele>
      </trkpt>
      <trkpt lat="43.50658" lon="16.516739">
        <ele>25.6</ele>
      </trkpt>
      <trkpt lat="43.50652" lon="16.51632">
        <ele>27.0</ele>
      </trkpt>
      <trkpt lat="43.50654" lon="16.515989">
        <ele>28.7</ele>
      </trkpt>
      <trkpt lat="43.50667" lon="16.51528">
        <ele>34.4</ele>
      </trkpt>
      <trkpt lat="43.50668" lon="16.51493">
        <ele>36.4</ele>
      </trkpt>
      <trkpt lat="43.50674" lon="16.51434">
        <ele>38.7</ele>
      </trkpt>
      <trkpt lat="43.50687" lon="16.51433">
        <ele>40.6</ele>
      </trkpt>
      <trkpt lat="43.50698" lon="16.51428">
        <ele>42.2</ele>
      </trkpt>
      <trkpt lat="43.50708" lon="16.513919">
        <ele>45.0</ele>
      </trkpt>
      <trkpt lat="43.50725" lon="16.512889">
        <ele>50.4</ele>
      </trkpt>
      <trkpt lat="43.50733" lon="16.512149">
        <ele>51.1</ele>
      </trkpt>
      <trkpt lat="43.5074" lon="16.51198">
        <ele>51.6</ele>
      </trkpt>
      <trkpt lat="43.50738" lon="16.511669">
        <ele>50.7</ele>
      </trkpt>
      <trkpt lat="43.50738" lon="16.51155">
        <ele>50.3</ele>
      </trkpt>
      <trkpt lat="43.5073" lon="16.51116">
        <ele>48.6</ele>
      </trkpt>
      <trkpt lat="43.50731" lon="16.51021">
        <ele>47.4</ele>
      </trkpt>
      <trkpt lat="43.50732" lon="16.51014">
        <ele>47.5</ele>
      </trkpt>
      <trkpt lat="43.50741" lon="16.509899">
        <ele>47.3</ele>
      </trkpt>
      <trkpt lat="43.50746" lon="16.50967">
        <ele>46.7</ele>
      </trkpt>
      <trkpt lat="43.50734" lon="16.5091">
        <ele>44.6</ele>
      </trkpt>
      <trkpt lat="43.50723" lon="16.5084">
        <ele>44.0</ele>
      </trkpt>
      <trkpt lat="43.5071" lon="16.50724">
        <ele>45.8</ele>
      </trkpt>
      <trkpt lat="43.50708" lon="16.50678">
        <ele>47.1</ele>
      </trkpt>
      <trkpt lat="43.5071" lon="16.50647">
        <ele>49.2</ele>
      </trkpt>
      <trkpt lat="43.50715" lon="16.50616">
        <ele>52.2</ele>
      </trkpt>
      <trkpt lat="43.50726" lon="16.505769">
        <ele>56.5</ele>
      </trkpt>
      <trkpt lat="43.50741" lon="16.50534">
        <ele>58.9</ele>
      </trkpt>
      <trkpt lat="43.50748" lon="16.50517">
        <ele>59.8</ele>
      </trkpt>
      <trkpt lat="43.50767" lon="16.504539">
        <ele>59.9</ele>
      </trkpt>
      <trkpt lat="43.50787" lon="16.50392">
        <ele>58.6</ele>
      </trkpt>
      <trkpt lat="43.5081" lon="16.50302">
        <ele>58.0</ele>
      </trkpt>
      <trkpt lat="43.50833" lon="16.50213">
        <ele>57.6</ele>
      </trkpt>
      <trkpt lat="43.50837" lon="16.50202">
        <ele>57.3</ele>
      </trkpt>
      <trkpt lat="43.50844" lon="16.501919">
        <ele>57.1</ele>
      </trkpt>
      <trkpt lat="43.50846" lon="16.5019">
        <ele>57.0</ele>
      </trkpt>
      <trkpt lat="43.50852" lon="16.50189">
        <ele>56.9</ele>
      </trkpt>
      <trkpt lat="43.50863" lon="16.501919">
        <ele>56.7</ele>
      </trkpt>
      <trkpt lat="43.50914" lon="16.502189">
        <ele>55.4</ele>
      </trkpt>
      <trkpt lat="43.50965" lon="16.50245">
        <ele>53.3</ele>
      </trkpt>
      <trkpt lat="43.51027" lon="16.502759">
        <ele>52.1</ele>
      </trkpt>
      <trkpt lat="43.51088" lon="16.50306">
        <ele>51.9</ele>
      </trkpt>
      <trkpt lat="43.51136" lon="16.503309">
        <ele>50.5</ele>
      </trkpt>
      <trkpt lat="43.51183" lon="16.50356">
        <ele>46.0</ele>
      </trkpt>
      <trkpt lat="43.5126" lon="16.50392">
        <ele>39.5</ele>
      </trkpt>
      <trkpt lat="43.51283" lon="16.50293">
        <ele>41.4</ele>
      </trkpt>
      <trkpt lat="43.51306" lon="16.50195">
        <ele>44.6</ele>
      </trkpt>
      <trkpt lat="43.51329" lon="16.50096">
        <ele>48.7</ele>
      </trkpt>
      <trkpt lat="43.51332" lon="16.500889">
        <ele>48.8</ele>
      </trkpt>
      <trkpt lat="43.51335" lon="16.50084">
        <ele>49.0</ele>
      </trkpt>
      <trkpt lat="43.51339" lon="16.5008">
        <ele>49.2</ele>
      </trkpt>
      <trkpt lat="43.5134" lon="16.50076">
        <ele>49.4</ele>
      </trkpt>
      <trkpt lat="43.51341" lon="16.50072">
        <ele>49.6</ele>
      </trkpt>
      <trkpt lat="43.51339" lon="16.50064">
        <ele>50.0</ele>
      </trkpt>
      <trkpt lat="43.51339" lon="16.50057">
        <ele>50.3</ele>
      </trkpt>
      <trkpt lat="43.51341" lon="16.500419">
        <ele>51.0</ele>
      </trkpt>
      <trkpt lat="43.51366" lon="16.49936">
        <ele>56.2</ele>
      </trkpt>
      <trkpt lat="43.5139" lon="16.4983">
        <ele>60.5</ele>
      </trkpt>
      <trkpt lat="43.51415" lon="16.49724">
        <ele>64.4</ele>
      </trkpt>
      <trkpt lat="43.5144" lon="16.496179">
        <ele>70.0</ele>
      </trkpt>
      <trkpt lat="43.51464" lon="16.49512">
        <ele>75.2</ele>
      </trkpt>
      <trkpt lat="43.51489" lon="16.49406">
        <ele>77.3</ele>
      </trkpt>
      <trkpt lat="43.51513" lon="16.492999">
        <ele>74.2</ele>
      </trkpt>
      <trkpt lat="43.51517" lon="16.49304">
        <ele>74.4</ele>
      </trkpt>
      <trkpt lat="43.51519" lon="16.49305">
        <ele>74.4</ele>
      </trkpt>
      <trkpt lat="43.51503" lon="16.49376">
        <ele>76.5</ele>
      </trkpt>
      <trkpt lat="43.51486" lon="16.49447">
        <ele>76.7</ele>
      </trkpt>
      <trkpt lat="43.51486" lon="16.49447">
        <ele>76.7</ele>
      </trkpt>
      <trkpt lat="43.51503" lon="16.49376">
        <ele>76.5</ele>
      </trkpt>
      <trkpt lat="43.51519" lon="16.49305">
        <ele>74.4</ele>
      </trkpt>
      <trkpt lat="43.51517" lon="16.49304">
        <ele>74.4</ele>
      </trkpt>
      <trkpt lat="43.51513" lon="16.492999">
        <ele>74.2</ele>
      </trkpt>
      <trkpt lat="43.51539" lon="16.49191">
        <ele>67.6</ele>
      </trkpt>
      <trkpt lat="43.51565" lon="16.49081">
        <ele>61.5</ele>
      </trkpt>
      <trkpt lat="43.51592" lon="16.489709">
        <ele>54.9</ele>
      </trkpt>
      <trkpt lat="43.51618" lon="16.48862">
        <ele>50.3</ele>
      </trkpt>
      <trkpt lat="43.51644" lon="16.48752">
        <ele>45.1</ele>
      </trkpt>
      <trkpt lat="43.5167" lon="16.486429">
        <ele>41.6</ele>
      </trkpt>
      <trkpt lat="43.5168" lon="16.4859">
        <ele>40.2</ele>
      </trkpt>
      <trkpt lat="43.51684" lon="16.485389">
        <ele>40.0</ele>
      </trkpt>
      <trkpt lat="43.51685" lon="16.484839">
        <ele>40.5</ele>
      </trkpt>
      <trkpt lat="43.51681" lon="16.48422">
        <ele>42.9</ele>
      </trkpt>
      <trkpt lat="43.51675" lon="16.48378">
        <ele>44.1</ele>
      </trkpt>
      <trkpt lat="43.51655" lon="16.48266">
        <ele>46.8</ele>
      </trkpt>
      <trkpt lat="43.51635" lon="16.481549">
        <ele>50.3</ele>
      </trkpt>
      <trkpt lat="43.51622" lon="16.48075">
        <ele>54.4</ele>
      </trkpt>
      <trkpt lat="43.5161" lon="16.48006">
        <ele>59.1</ele>
      </trkpt>
      <trkpt lat="43.51599" lon="16.479379">
        <ele>63.0</ele>
      </trkpt>
      <trkpt lat="43.51588" lon="16.478819">
        <ele>66.8</ele>
      </trkpt>
      <trkpt lat="43.5158" lon="16.47847">
        <ele>69.5</ele>
      </trkpt>
      <trkpt lat="43.51558" lon="16.47759">
        <ele>74.7</ele>
      </trkpt>
      <trkpt lat="43.51545" lon="16.477139">
        <ele>75.4</ele>
      </trkpt>
      <trkpt lat="43.51518" lon="16.47637">
        <ele>76.5</ele>
      </trkpt>
      <trkpt lat="43.51495" lon="16.47577">
        <ele>78.1</ele>
      </trkpt>
      <trkpt lat="43.51482" lon="16.475359">
        <ele>80.3</ele>
      </trkpt>
      <trkpt lat="43.5146" lon="16.47457">
        <ele>84.4</ele>
      </trkpt>
      <trkpt lat="43.51451" lon="16.474229">
        <ele>85.8</ele>
      </trkpt>
      <trkpt lat="43.51436" lon="16.47352">
        <ele>86.1</ele>
      </trkpt>
      <trkpt lat="43.51427" lon="16.47298">
        <ele>86.0</ele>
      </trkpt>
      <trkpt lat="43.51418" lon="16.47238">
        <ele>85.7</ele>
      </trkpt>
      <trkpt lat="43.51409" lon="16.47177">
        <ele>84.6</ele>
      </trkpt>
      <trkpt lat="43.51402" lon="16.471319">
        <ele>84.0</ele>
      </trkpt>
      <trkpt lat="43.51399" lon="16.47111">
        <ele>83.9</ele>
      </trkpt>
      <trkpt lat="43.51431" lon="16.470849">
        <ele>84.6</ele>
      </trkpt>
      <trkpt lat="43.51457" lon="16.47055">
        <ele>84.3</ele>
      </trkpt>
      <trkpt lat="43.515" lon="16.47018">
        <ele>84.2</ele>
      </trkpt>
      <trkpt lat="43.51543" lon="16.469819">
        <ele>84.0</ele>
      </trkpt>
      <trkpt lat="43.51583" lon="16.46939">
        <ele>84.6</ele>
      </trkpt>
      <trkpt lat="43.51608" lon="16.469059">
        <ele>83.8</ele>
      </trkpt>
      <trkpt lat="43.51629" lon="16.46873">
        <ele>82.0</ele>
      </trkpt>
      <trkpt lat="43.51656" lon="16.46821">
        <ele>76.2</ele>
      </trkpt>
      <trkpt lat="43.51667" lon="16.468029">
        <ele>73.3</ele>
      </trkpt>
      <trkpt lat="43.51677" lon="16.46782">
        <ele>72.5</ele>
      </trkpt>
      <trkpt lat="43.51701" lon="16.46713">
        <ele>68.8</ele>
      </trkpt>
      <trkpt lat="43.51725" lon="16.466439">
        <ele>64.7</ele>
      </trkpt>
      <trkpt lat="43.51749" lon="16.465789">
        <ele>61.2</ele>
      </trkpt>
      <trkpt lat="43.51765" lon="16.46528">
        <ele>58.4</ele>
      </trkpt>
      <trkpt lat="43.51773" lon="16.46499">
        <ele>57.0</ele>
      </trkpt>
      <trkpt lat="43.51782" lon="16.4646">
        <ele>55.7</ele>
      </trkpt>
      <trkpt lat="43.51795" lon="16.46387">
        <ele>52.2</ele>
      </trkpt>
      <trkpt lat="43.51799" lon="16.46345">
        <ele>49.6</ele>
      </trkpt>
      <trkpt lat="43.51803" lon="16.46302">
        <ele>49.0</ele>
      </trkpt>
      <trkpt lat="43.51804" lon="16.46256">
        <ele>49.4</ele>
      </trkpt>
      <trkpt lat="43.51805" lon="16.46178">
        <ele>45.9</ele>
      </trkpt>
      <trkpt lat="43.51804" lon="16.4615">
        <ele>45.8</ele>
      </trkpt>
      <trkpt lat="43.51801" lon="16.46123">
        <ele>46.7</ele>
      </trkpt>
      <trkpt lat="43.51795" lon="16.46088">
        <ele>48.0</ele>
      </trkpt>
      <trkpt lat="43.5178" lon="16.46001">
        <ele>49.1</ele>
      </trkpt>
      <trkpt lat="43.51767" lon="16.459499">
        <ele>51.4</ele>
      </trkpt>
      <trkpt lat="43.51742" lon="16.45877">
        <ele>54.7</ele>
      </trkpt>
      <trkpt lat="43.51711" lon="16.45795">
        <ele>58.7</ele>
      </trkpt>
      <trkpt lat="43.51699" lon="16.45764">
        <ele>59.8</ele>
      </trkpt>
      <trkpt lat="43.51684" lon="16.4573">
        <ele>61.7</ele>
      </trkpt>
      <trkpt lat="43.51671" lon="16.456969">
        <ele>64.3</ele>
      </trkpt>
      <trkpt lat="43.51663" lon="16.45663">
        <ele>66.2</ele>
      </trkpt>
      <trkpt lat="43.5166" lon="16.45627">
        <ele>65.8</ele>
      </trkpt>
      <trkpt lat="43.51654" lon="16.45519">
        <ele>62.9</ele>
      </trkpt>
      <trkpt lat="43.51641" lon="16.45416">
        <ele>57.4</ele>
      </trkpt>
      <trkpt lat="43.51622" lon="16.45338">
        <ele>52.2</ele>
      </trkpt>
      <trkpt lat="43.51607" lon="16.45286">
        <ele>50.4</ele>
      </trkpt>
      <trkpt lat="43.51601" lon="16.452549">
        <ele>49.7</ele>
      </trkpt>
      <trkpt lat="43.51587" lon="16.452089">
        <ele>48.4</ele>
      </trkpt>
      <trkpt lat="43.51585" lon="16.45202">
        <ele>48.2</ele>
      </trkpt>
      <trkpt lat="43.51579" lon="16.45193">
        <ele>48.0</ele>
      </trkpt>
      <trkpt lat="43.51573" lon="16.45168">
        <ele>47.3</ele>
      </trkpt>
      <trkpt lat="43.51551" lon="16.45099">
        <ele>46.3</ele>
      </trkpt>
      <trkpt lat="43.51516" lon="16.44996">
        <ele>44.5</ele>
      </trkpt>
      <trkpt lat="43.51481" lon="16.44893">
        <ele>41.2</ele>
      </trkpt>
      <trkpt lat="43.5148" lon="16.44891">
        <ele>41.1</ele>
      </trkpt>
      <trkpt lat="43.51491" lon="16.44882">
        <ele>41.1</ele>
      </trkpt>
      <trkpt lat="43.51535" lon="16.44846">
        <ele>39.9</ele>
      </trkpt>
      <trkpt lat="43.51543" lon="16.44837">
        <ele>39.6</ele>
      </trkpt>
      <trkpt lat="43.51571" lon="16.44801">
        <ele>38.6</ele>
      </trkpt>
      <trkpt lat="43.51585" lon="16.4478">
        <ele>37.6</ele>
      </trkpt>
      <trkpt lat="43.51614" lon="16.44732">
        <ele>35.4</ele>
      </trkpt>
      <trkpt lat="43.51636" lon="16.44694">
        <ele>33.9</ele>
      </trkpt>
    </trkseg>
  </trk>
</gpx>
